StreetAddress,City,State,ZipCode
"377 Brannon Street","Los Angeles",CA,90017
"2320 Cook Hill Road","New Haven",CT,06510
"1133 Mahlon Street","New Brunswick",NJ,08901
"2866 Thorn Street",Sheridan,WY,82801
"1716 Timbercrest Road",Healy,AK,99743
"1351 Ferguson Street","West Roxbury",MA,02132
"3605 Whiteman Street",Wildwood,NJ,08260
"4351 Old Dear Lane","New York",NY,10011
"174 Sycamore Street","Santa Clara",CA,95054
"4893 Cherry Ridge Drive",Webster,NY,14580
"2839 Wiseman Street",Harriman,TN,37748
"3588 Radio Park Drive",Augusta,GA,30901
"149 Simpson Street",Wyoming,IL,61491
"3181 Wyatt Street","Boca Raton",FL,33434
"1583 Byers Lane",Sacramento,CA,94260
"4462 Agriculture Lane","Laurel Point",WV,26505
"2325 Coal Road","Sugar Notch",PA,18706
"3201 Boggess Street",Seymour,TX,76380
"2634 Augusta Park","New Martinsville",WV,26155
"1397 Barrington Court",Paragould,AR,72450
"4544 Honeysuckle Lane",Seattle,WA,98161
"4327 Carter Street","Sailor Springs",IL,62434
"4134 Blackwell Street","St Marys",AK,99658
"2132 Heritage Road",Fresno,CA,93704
"2680 Walnut Street",Vicksburg,MS,39180
"3764 Black Oak Hollow Road",Sunnyvale,CA,94086
"915 James Avenue",Madison,NY,13402
"4354 Smithfield Avenue",Levelland,TX,79336
"1141 Oakmound Drive",Chicago,IL,60647
"4872 Martha Ellen Drive",Reno,NV,89509
"2536 Pinchelone Street",Smithfield,VA,23430
"2613 Radio Park Drive",Augusta,GA,30904
"2739 Peaceful Lane",Cleveland,OH,44111
"2927 Duke Lane",Neptune,NJ,07753
"328 Rosewood Lane","New York",NY,10019
"1460 Margaret Street",Houston,TX,77063
"2429 Marshall Street","Windsor Mill",MD,21244
"4984 Edsel Road",Fullerton,CA,93632
"766 Snider Street",Cheraw,CO,81030
"3951 Haven Lane",Lansing,MI,48933
"3776 Eva Pearl Street","Baton Rouge",LA,70802
"2851 Jarvis Street",Buffalo,NY,14211
"4452 Richards Avenue",Stockton,CA,95204
"1087 Copperhead Road",Southington,CT,06489
"72 Ocala Street",Orlando,FL,32805
"3201 Washington Avenue",Metairie,MS,70001
"3203 Stuart Street",Bridgeville,PA,15017
"1885 Kessla Way","Saint Stephen",SC,29479
"920 Villa Drive","South Bend",IN,46618
"1198 Summit Street",Wheatland,IA,52777
"979 Oakridge Farm Lane","West Bend",WI,53095
"31 Pinchelone Street",Norfolk,VA,23502
"3782 Riverside Drive",Augusta,GA,30906
"3151 Arron Smith Drive",Honolulu,HI,96818
"954 Pinnickinick Street",Bellingham,WA,98225
"3768 Lynn Street",Worcester,MA,01610
"910 Seth Street",Kingsland,TX,78639
"4031 Southern Street","Long Island City",NY,11101
"11 Todds Lane","San Antonio",TX,78205
"4015 Neville Street",Seymour,IN,47274
"1813 Woodland Avenue",Paradis,LA,70080
"2165 August Lane",Monroe,LA,71201
"2053 Jehovah Drive",Winchester,VA,22601
"924 Jefferson Street",Norfolk,VA,23502
"4541 Dogwood Lane",Tucson,AZ,85742
"1337 Hamilton Drive","Texas City",TX,77591
"4251 Crosswind Drive",Campbellsville,KY,42718
"337 Wilmar Farm Road",Reston,MD,20191
"841 Glenwood Avenue",Euclid,OH,44132
"993 Woodland Drive","Sioux City",IA,51101
"3583 Valley Street",Camden,NJ,08102
"4430 Hide A Way Road",Milpitas,CA,95035
"4414 Hope Street",Mesquite,TX,75149
"4598 Bird Spring Lane",Pasadena,TX,77503
"4927 Lighthouse Drive",Collins,MO,64738
"157 Cityview Drive","Bryn Mawr",PA,19010
"449 Nutters Barn Lane",Stratford,IA,50249
"700 Rainy Day Drive",Boston,MA,02107
"83 Johnny Lane",Milwaukee,WI,53213
"2557 Veltri Drive","English Bay",AK,99603
"3074 Duffy Street",Portage,IN,46368
"2818 Loving Acres Road","Kansas City",MO,64110
"3500 Science Center Drive","Idaho Falls",ID,83402
"1282 Passaic Street",Freehold,NJ,07728
"884 Boundary Street",Jacksonville,FL,32207
"280 Sundown Lane",Austin,TX,78664
"2632 Hewes Avenue",Baltimore,MD,21202
"4137 Marion Street",Alburg,VT,05440
"456 Chestnut Street","Plant City",FL,33566
"1351 Bicetown Road","New York",NY,10016
"3074 Adonais Way",Atlanta,GA,30328
"712 Burning Memory Lane",Philadelphia,PA,19125
"4678 Aaron Smith Drive",York,PA,17404
"4789 Richison Drive",Libby,MT,59923
"2627 Fairmont Avenue","La Plata",MO,63549
"1885 Memory Lane",Wellington,IL,60973
"2743 Pratt Avenue","Sedro Woolley",WA,98284
"4678 Oakmound Drive",Chicago,IL,60657
"3261 Bel Meadow Drive",Fontana,CA,92335
"2681 Oakdale Avenue","Fort Myers",FL,33901
"3750 Woodland Avenue","New Orleans",LA,70112
"2243 Moore Avenue",Dallas,TX,75204
"2178 Norman Street","Los Angeles",CA,90031
"4256 Thunder Road","Palo Alto",CA,94301
"3309 Martha Ellen Drive",Gardnerville,NV,89410
"772 Traders Alley","Kansas City",MO,64106
"1557 Indiana Avenue",Honolulu,HI,96816
"2501 School House Road",Jackson,MS,39201
"4656 Woodstock Drive","El Monte",CA,91731
"2300 Willow Greene Drive",Montgomery,AL,36104
"1437 Ruckman Road","Oklahoma City",OK,73113
"1424 Breezewood Court",Moundridge,KS,67107
"2055 Aaron Smith Drive","New Cumberland",PA,17070
"2831 Del Dew Drive",Rockville,MD,20852
"2017 Prospect Street",Camden,NJ,08102
"4819 Star Trek Drive",Tallahassee,FL,32301
"733 Westwood Avenue","Garden City",NY,11530
"1633 Copperhead Road",Wapping,CT,06074
"1759 Skinner Hollow Road",Oakridge,OR,97463
"4767 Brown Avenue",Seneca,SC,29678
"3589 Oakwood Circle","San Clemente",CA,92672
"154 Pinewood Avenue",Bergland,MI,49910
"2274 Angie Drive",Anaheim,CA,92805
"774 Patton Lane",Raleigh,NC,27603
"4200 Crowfield Road",Phoenix,AZ,85017
"2064 Rosewood Lane","New York",NY,10036
"819 High Meadow Lane","Saint Joseph",PA,18801
"1821 Armory Road","Southern Pines",NC,28387
"2903 Harley Brook Lane","Grand Valley",PA,16420
"1022 Sundown Lane",Austin,TX,78753
"3960 Hog Camp Road",Chicago,IL,60601
"1270 McDonald Avenue",Orlando,FL,32803
"1301 Atha Drive",Bakersfield,CA,93301
"2722 Par Drive","San Luis Obispo",CA,93401
"3018 Grey Fox Farm Road",Houston,TX,77077
"113 Winding Way","East Providence",RI,02914
"1690 Amethyst Drive",Lansing,MI,48933
"2301 Rardin Drive",Fremont,CA,94539
"1193 Copperhead Road","Windsor Locks",CT,06096
"1110 Hardesty Street",Colonie,NY,12205
"2464 Horseshoe Lane",Norristown,PA,19403
"75 Roosevelt Wilson Lane","San Bernardino",CA,92405
"3635 Yorkshire Circle","Elm City",NC,27822
"2201 Grove Street",Farmingdale,NY,11735
"941 Libby Street","Beverly Hills",CA,90210
"4315 Thompson Drive",Oakland,CA,94612
"890 B Street","White Bear Lake",MN,55110
"4397 Maxwell Street",Hartford,CT,06103
"2030 Red Bud Lane",Hartford,CT,06182
"1860 Massachusetts Avenue",Washington,DC,20009
"1718 Providence Lane","La Puente",CA,91744
"1203 Doctors Drive","Los Angeles",CA,90017
"4219 Pearlman Avenue",Bedford,MA,01730
"3893 Eden Drive","Providence Forge",VA,23140
"4095 Stroop Hill Road",Atlanta,GA,30303
"4990 Sardis Station",Minneapolis,MN,55402
"2143 Mercer Street",Barron,WI,54812
"1861 Augusta Park",Nitro,WV,25143
"4138 Fancher Drive",Cleburne,TX,76031
"3827 Cambridge Drive","Circle City",AZ,85342
"4375 Sherwood Circle",Lafayette,LA,70583
"537 Nutters Barn Lane","Fort Dodge",IA,50501
"4198 Linden Avenue",Orlando,FL,32810
"2153 Glenwood Avenue","Garfield Heights",OH,44125
"3062 Nutter Street","Kansas City",MO,64106
"4661 Evergreen Lane",Irvine,CA,92618
"3945 Lakeland Terrace",Southfield,MI,48075
"2681 Shadowmar Drive",Metairie,LA,70001
"36 Wilson Avenue",Richardson,TX,75081
"1114 Whitman Court","North Haven",CT,06473
"4737 Colony Street",Stamford,CT,06902
"4479 Kembery Drive",Chicago,IL,60603
"3473 Church Street","New York",NY,10013
"2610 Harry Place",Charlotte,NC,28202
"4181 Newton Street",Cokato,MN,55321
"4328 Emily Renzelli Boulevard",Salinas,CA,93901
"2662 Upland Avenue",Cardington,OH,43315
"4671 Ryder Avenue",Seattle,WA,98109
"1241 Windy Ridge Road","Fort Wayne",IN,46802
"4534 Joy Lane","Los Angeles",CA,90017
"3606 Meadowbrook Mall Road","Playa Del Rey",CA,90291
"4059 Hart Street","New Milford",CT,06776
"1461 Jefferson Street",Accomack,VA,23510
"2152 Maple Avenue",Paris,ID,83261
"644 Wayback Lane",Brentwood,NY,11717
"281 Lords Way",Kenton,TN,38233
"4449 State Street","Maryland Heights",MO,63141
"3768 Fairway Drive","San Jose",CA,95113
"614 Emily Drive",Chapin,SC,29036
"3710 Kerry Way","Bell Gardens",CA,90201
"2530 Courtright Street",Donnybrook,ND,58734
"4555 Ferrell Street",Duluth,MN,55802
"3844 Red Maple Drive","Los Angeles",CA,90063
"1384 Park Street",Concord,CA,94520
"4991 Ocello Street","San Diego",CA,92117
"4788 Grove Avenue","Mountain View",OK,73062
"4313 Broadcast Drive",Chantilly,VA,22021
"287 Cambridge Place",Baltimore,MD,21217
"203 August Lane",Shreveport,LA,71101
"2771 Ashwood Drive",Omaha,NE,68102
"1527 Valley Street",Camden,NJ,08102
"1695 Fincham Road","Palm Springs",CA,92262
"1292 Cityview Drive",Allentown,PA,18101
"1878 Maple Street",Orange,CA,92632
"4864 Nickel Road","Los Angeles",CA,90017
"2611 Cardinal Lane",Decatur,IL,62522
"4813 Nuzum Court",Buffalo,NY,14214
"954 Modoc Alley",Challis,ID,83226
"4478 Mesa Drive","Las Vegas",NV,89119
"4933 Marcus Street",Anniston,AL,36201
"83 Park Avenue",Sacramento,CA,95826
"1916 University Street",Seattle,WA,98101
"389 Giraffe Hill Drive",Richardson,TX,75081
"516 Lincoln Street","Gloucester City",NJ,08030
"1935 Tea Berry Lane",Wausau,WI,54403
"520 Robinson Lane",Marion,OH,43302
"4106 Peck Street",Portsmouth,NH,03801
"3308 Fairmont Avenue",Rushville,MO,64484
"362 Freed Drive",Stockton,CA,95219
"319 University Drive","Hickory Hills",IL,60457
"2972 Jessie Street",Lancaster,OH,43130
"3970 Colonial Drive",Houston,TX,77006
"127 Flint Street",Atlanta,GA,30303
"1705 Rardin Drive",Oakland,CA,94607
"2253 Coffman Alley",Campbellsville,KY,42718
"900 Chicago Avenue",Parlier,CA,93648
"661 Beechwood Drive",Pittsburgh,PA,15222
"2762 Franklee Lane",Philadelphia,PA,19108
"4156 Ward Road","White Plains",NY,10601
"288 Granville Lane",Newark,NJ,07102
"3334 Khale Street",Florence,SC,29501
"3221 Grove Street","New York",NY,10013
"4490 Nuzum Court",Cassadaga,NY,14718
"3049 Radford Street",Louisville,KY,40202
"389 Armbrester Drive",Lomita,CA,90717
"1743 Creekside Lane","Mira Loma",CA,91752
"1130 Fort Street",Ahoskie,NC,27910
"1780 Arlington Avenue",Arkadelphia,AR,71923
"3753 Tea Berry Lane","Eau Claire",WI,54701
"303 Wood Duck Drive",Marquette,MI,49855
"4731 Mulberry Lane",Miami,FL,33132
"2236 Newton Street","Saint Cloud",MN,56301
"506 McVaney Road",Asheville,NC,28801
"2532 Hickory Heights Drive",Pikesville,MD,21208
"4060 Briarwood Road",Springfield,MO,65806
"4972 Sundown Lane",Austin,TX,78753
"1397 Adams Drive",Houston,TX,77002
"2794 Tipple Road",Philadelphia,PA,19140
"4974 Camden Street",Reno,NV,89501
"3566 Armbrester Drive","West Los Angeles",CA,90025
"3272 Shinn Avenue",Pittsburgh,PA,15219
"3215 Circle Drive",Houston,TX,77032
"783 Lost Creek Road",Leesport,PA,19533
"2361 Long Street",Ocala,FL,34471
"1925 Haven Lane",Potterville,MI,48876
"35 Terry Lane",Orlando,FL,32801
"2045 Green Avenue",Alameda,CA,94501
"1757 Rodney Street",Manchester,MO,63011
"1733 Garrett Street","Grand Rapids",MI,49503
"1809 Riverside Drive",Chattanooga,GA,30741
"1566 Still Pastures Drive",Jackson,SC,29831
"4654 Brentwood Drive",Austin,TX,78758
"3294 Vernon Street",California,CA,02110
"2180 Worley Avenue",Wintergreen,VA,24551
"3176 Southern Avenue",Chariton,IA,50049
"1364 Tator Patch Road",Chicago,IL,60605
"1986 Green Acres Road",Henderson,NC,27536
"2494 Jehovah Drive",Chancellor,VA,22407
"81 Cabell Avenue",Arlington,VA,22202
"188 Seneca Drive",Salem,OR,97301
"2410 Benedum Drive","Wappingers Falls",NY,12590
"2659 Clement Street",Duluth,GA,30097
"3450 Rhode Island Avenue",Washington,DC,20008
"2493 Hanover Street","New York",NY,10038
"3198 Steele Street","Oak Brook",IL,60523
"3596 Stone Lane",Pottstown,PA,19464
"1014 Bird Spring Lane","Mont Belvieu",TX,77580
"436 Meadowcrest Lane",Pikeville,KY,41501
"3211 Maple Street","Los Angeles",CA,90017
"3975 Bee Street",Morley,MI,49336
"2618 Norman Street","Los Angeles",CA,90014
"387 Heather Sees Way",Tulsa,OK,74120
"1855 Bell Street","New York",NY,10003
"3242 Elliot Avenue",Kent,WA,98032
"2242 Whitman Court",Stamford,CT,06995
"1085 Diane Street","San Miguel",CA,93451
"3835 Myra Street",Providence,RI,02905
"2030 Buena Vista Avenue","Coos Bay",OR,97420
"931 Johnstown Road","Park Ridge",IL,60068
"572 Forest Avenue","New York",NY,10013
"3002 Mcwhorter Road",Jackson,MS,39201
"3637 Ripple Street",Saginaw,MI,48601
"1305 Blackwell Street",Anchorage,AK,99515
"2400 Straford Park",Fallsburg,KY,41218
"1149 Evergreen Lane","Huntington Park",CA,90255
"1646 Earnhardt Drive",Louisville,KY,40202
"2294 Camden Street",Reno,NV,89501
"165 Evergreen Lane",Irvine,CA,92618
"1713 Roguski Road",Bastrop,LA,71220
"1182 Delaware Avenue",Dublin,CA,94568
"1001 American Drive",Woodbury,NJ,08096
"1274 Nash Street",Detroit,MI,48226
"1535 Highland View Drive",Rocklin,CA,95677
"2645 Maloy Court",Fairview,KS,66425
"3923 Hart Ridge Road",Prudenville,MI,48651
"3964 Private Lane",Albany,GA,31707
"1547 Stroop Hill Road",Atlanta,GA,30303
"936 Grant View Drive","Hales Corners",WI,53130
"3009 Dane Street","New Bedford",MA,02740
"2121 Skips Lane",Phoenix,AZ,85034
"1236 Young Road",Melba,ID,83641
"4774 Green Street",Smithville,TN,37166
"3109 Hawks Nest Lane","Maryland Heights",MO,63141
"321 Hott Street","Oklahoma City",OK,73129
"2209 Brown Street","Walnut Creek",CA,94596
"2490 Union Street",Seattle,WA,98101
"965 Augusta Park",Wheeling,WV,26003
"1302 Steve Hunt Road","North Dade",FL,33180
"843 Norman Street",Pomona,CA,91766
"730 Tator Patch Road","Burr Ridge",IL,61257
"2032 Andell Road",Westerville,OH,43081
"137 Duff Avenue",Plainfield,VT,05667
"2772 Frederick Street","El Paso",TX,79905
"1620 Turkey Pen Road","New York",NY,10038
"2474 Pin Oak Drive","Santa Ana",CA,92705
"1912 Woodhill Avenue",Towson,MD,21204
"734 Deer Haven Drive",Piedmont,SC,29673
"3047 Saints Alley","Polk City",FL,33868
"2201 White Lane",Forsyth,GA,31029
"3731 Green Avenue",Fremont,CA,94536
"3948 Michael Street",Houston,TX,77063
"2013 Cemetery Street",Salinas,CA,93901
"2346 Old Dear Lane","New York",NY,10011
"2258 Alpha Avenue","Jacksonville Beach",FL,32250
"3522 Rainbow Drive",Youngstown,OH,44512
"3172 Seneca Drive",Portland,OR,97214
"3604 Cecil Street",Chicago,IL,60605
"3696 Lewis Street","Downers Grove",IL,60515
"4293 Pyramid Valley Road","Iowa City",IA,52240
"4058 Highland View Drive",Roseville,CA,95661
"315 Lee Avenue",Camden,NJ,08102
"3248 Powder House Road",Miramar,FL,33025
"3226 Airplane Avenue",Hartford,CT,06103
"4651 Willis Avenue",Bunnell,FL,32010
"1951 Dovetail Drive","Des Plaines",IL,60016
"1701 Augusta Park","New Martinsville",WV,26155
"3891 Marion Street",Burlington,VT,05401
"656 Chapel Street",Baytown,TX,77521
"26 Elk Avenue",Howell,MI,48843
"34 Cedarstone Drive",Defiance,OH,43512
"2919 Callison Lane",Wilmington,DE,19801
"1904 Charla Lane",Richardson,TX,75081
"4771 Woodridge Lane",Memphis,TN,38134
"4837 Watson Street",Barnegat,NJ,08005
"2839 Rinehart Road","Ft Lauderdale",FL,33311
"1707 Lowndes Hill Park Road",Palmdale,CA,93550
"404 Quarry Drive",Auburn,AL,36830
"2280 Clarence Court",Fayetteville,NC,28306
"4735 Lakewood Drive",Ramsey,NJ,07446
"4650 Hood Avenue","La Jolla",CA,92037
"3835 Carolyns Circle",Irving,TX,75038
"681 Farland Avenue",Victoria,TX,77901
"4654 Rubaiyat Road","Muskegon Heights",MI,49444
"4677 Delaware Avenue","San Francisco",CA,94115
"4321 Ritter Street",Anniston,AL,36201
"643 Rhode Island Avenue",Savage,DC,20763
"1966 Hamill Avenue","San Diego",CA,92111
"177 New Street",Eugene,OR,97401
"728 White Avenue","Corpus Christi",TX,78476
"4671 Johnstown Road","Hickory Hills",IL,60457
"2915 Custer Street",Allegheny,PA,16635
"2880 Tyler Avenue",Miami,FL,33128
"3503 Lynn Ogden Lane",Orange,TX,77630
"2314 Carter Street",Centralia,IL,62801
"634 Dogwood Road",Phoenix,AZ,85034
"3552 Woodstock Drive",Anaheim,CA,92801
"1075 University Street",Seattle,WA,98155
"3269 Stratford Drive",Honolulu,HI,96819
"4460 Glendale Avenue","Los Angeles",CA,90017
"4729 Shearwood Forest Drive",Dover,NH,03820
"933 Ash Street",Dallas,TX,75287
"2263 Philli Lane",Miami,OK,74354
"3325 Little Acres Lane",Literberry,IL,62650
"2250 Browning Lane",Madison,WI,53716
"3136 Del Dew Drive",Clinton,MD,20735
"3786 Melrose Street",Oakland,CA,94612
"2998 Fancher Drive",Plano,TX,75074
"2426 Brown Bear Drive",Riverside,CA,92501
"4200 Skinner Hollow Road",Medford,OR,97501
"2261 Jadewood Drive",Gary,IN,46404
"1007 Camden Place",Charleston,SC,29424
"1730 Kessla Way","Myrtle Beach",SC,29577
"1734 Spring Avenue",Philadelphia,PA,19103
"4393 Leo Street",Aurora,CO,80014
"3880 Briarwood Road",Pittsburg,MO,65724
"3278 Seneca Drive",Portland,OR,97205
"1089 Heather Sees Way",Tulsa,OK,74105
"4632 Post Farm Road",Atlanta,GA,30339
"1250 Norma Lane",Shreveport,LA,71109
"1242 Berry Street","Colorado Springs",CO,80915
"665 Ashmor Drive",Marble,MN,55764
"4919 Ella Street","San Francisco",CA,94107
"3792 Oakway Lane",Pomona,CA,91766
"3639 Commerce Boulevard",Omaha,NE,68102
"2614 Howard Street","Grand Rapids",MI,49503
"2270 Cost Avenue",Greenbelt,MD,20770
"3520 Stutler Lane","Cambridge Springs",PA,16403
"4463 Lake Road",Merchantville,NJ,08109
"528 University Hill Road",Champaign,IL,61820
"2202 Briarhill Lane",Brunswick,OH,44212
"4084 Lowes Alley",Westerville,OH,43081
"566 Wayback Lane","Huntington Station",NY,11746
"436 Drummond Street",Lyndhurst,NJ,07071
"4886 Oak Ridge Drive","Saint Louis",MO,63101
"3030 Freedom Lane",Stockton,CA,95202
"2272 Pallet Street","New York",NY,10007
"3462 Brannon Avenue",Jacksonville,FL,32211
"2509 Walnut Hill Drive",Milford,OH,45150
"1487 Lucy Lane",Seymour,IN,47274
"615 Thompson Street","Los Angeles",CA,90017
"1964 George Avenue",Mobile,AL,36602
"38 Elk City Road",Indianapolis,IN,46204
"836 Dog Hill Lane",Manhattan,KS,66502
"1801 Sumner Street","Playa Del Rey",CA,90291
"2637 Lynn Street",Woburn,MA,01801
"3766 Rinehart Road",Sunrise,FL,33323
"2584 Martha Ellen Drive",Reno,NV,89503
"2558 Hilltop Haven Drive",Newark,NJ,07102
"2985 Kimberly Way","Grand Rapids",MI,49503
"3768 Small Street","New York",NY,10022
"1061 Fancher Drive",Plano,TX,75074
"435 Florence Street",Texarkana,TX,75507
"395 Zimmerman Lane","Los Angeles",CA,90014
"1909 Norman Street","Los Angeles",CA,90014
"1635 Horseshoe Lane",Norristown,PA,19403
"2407 Godfrey Street",Portland,OR,97205
"2869 Long Street",Ocala,FL,34471
"2963 Fire Access Road",Greensboro,NC,27406
"113 Shinn Avenue",Volant,PA,16156
"555 Thomas Street",Libertyville,IL,60048
"4343 Cliffside Drive",Worcester,NY,12197
"1463 Willow Greene Drive",Montgomery,AL,36014
"3407 College View",Hazelwood,IL,63042
"883 Thorn Street",Cheyenne,WY,82003
"1319 Turkey Pen Lane",Montgomery,AL,36104
"4127 Crummit Lane",Omaha,NE,68137
"55 Saint James Drive",York,PA,17403
"280 Selah Way",Brattleboro,VT,05301
"2540 Ottis Street","St Louis",OK,74854
"4777 Ferry Street",Anniston,AL,36201
"54 Daffodil Lane",Savage,VA,20763
"2238 Virgil Street","Port St Joe",FL,32456
"2996 Post Avenue","St Hilaire",MN,56754
"2964 Poplar Lane","Boca Raton",FL,33487
"66 Lynch Street","San Francisco",CA,94107
"2360 Layman Avenue",Fayetteville,NC,28305
"536 Horizon Circle",Tacoma,WA,98444
"437 Hickory Street","Salt Lake City",UT,84104
"2616 Bond Street",Newport,RI,02840
"2514 Michael Street",Houston,TX,77074
"4586 Reel Avenue",Albuquerque,NM,87102
"2825 Orphan Road",Gleason,WI,54435
"1261 Lyon Avenue",Worcester,MA,01608
"119 Logan Lane",Englewood,CO,80112
"3483 Mayo Street",Glencoe,KY,41046
"591 Tibbs Avenue",Butte,MT,59701
"4546 Cedar Lane",Boston,MA,02109
"2417 Kuhl Avenue",Covington,GA,30209
"473 Dark Hollow Road",Evansville,WI,53536
"2749 Wescam Court",Fernley,NV,89408
"1407 Commerce Boulevard",Tamora,NE,68434
"4479 Hillside Street",Mesa,AZ,85225
"2483 Jones Avenue","Winston Salem",NC,27101
"1584 Ashton Lane",Austin,TX,78744
"3880 Stone Lane","West Chester",PA,19382
"4954 Emily Renzelli Boulevard",Salinas,CA,93901
"3740 Byers Lane",Lewiston,CA,96052
"1694 Havanna Street",Shoals,NC,27030
"3036 Blane Street","Saint Louis",MO,63104
"418 Deer Haven Drive",Greenwood,SC,29646
"2240 Parrish Avenue","Santa Clara",CA,95054
"2748 Poplar Lane","Coral Gables",FL,33134
"1948 Clark Street",Northbrook,IL,60062
"1804 Sun Valley Road",Yakima,WA,98908
"1149 Hudson Street",Newark,NJ,07102
"4291 Blair Court","Grant City",MO,64456
"3219 Boring Lane","San Francisco",CA,94103
"1654 Elk Creek Road",Gainesville,GA,30501
"3054 Kovar Road",Boston,MA,02110
"2846 Public Works Drive","Ball Play",TN,37385
"4414 Daffodil Lane",Arlington,VA,22202
"299 Nutters Barn Lane",Urbandale,IA,50322
"1040 Copperhead Road",Glastonbury,CT,06033
"3536 Eagles Nest Drive","Yuba City",CA,95991
"4268 Lucy Lane",Evansville,IN,47714
"1440 Middleville Road",Anaheim,CA,92805
"4104 Cooks Mine Road",Espanola,NM,87532
"3533 Edwards Street",Hamilton,NC,27840
"4664 Conference Center Way",Ringtown,PA,17967
"3139 Passaic Street",Washington,DC,20009
"2597 Fleming Way",Richmond,VA,23238
"4729 Rivendell Drive",Akron,OH,44304
"4733 Bates Brothers Road",Columbus,OH,43204
"2189 Stonecoal Road",Mansfield,OH,44902
"4177 Harron Drive",Baltimore,MD,21201
"4097 Kelly Street",Charlotte,NC,28263
"1272 Hall Street","Las Vegas",NV,89102
"1604 Bingamon Road",Parkman,OH,44080
"979 Lamberts Branch Road",Miami,FL,33143
"827 Red Maple Drive",Pomona,CA,91766
"1203 Timberbrook Lane",Mesa,CO,81643
"406 Lucky Duck Drive",Pittsburgh,PA,15219
"3109 Rebecca Street",Wheeling,IL,60090
"3500 Sarah Drive","Lake Charles",LA,70605
"1539 Lakeland Terrace",Westland,MI,48185
"389 Hope Street",Beaverton,OR,97008
"4761 Catherine Drive",Tappen,ND,58487
"1397 Oakmound Road","Arlington Heights",IL,60004
"3148 Stonepot Road",Weehawken,NJ,07087
"2963 Tipple Road",Philadelphia,PA,19104
"1745 Kuhl Avenue",Jonesboro,GA,30236
"1031 Grand Avenue",Apopka,FL,32703
"1886 Fowler Avenue",Norcross,GA,30071
"1976 Dogwood Lane",Tucson,AZ,85701
"2412 Big Elm","Kansas City",MO,64106
"3800 Frederick Street","El Paso",TX,79924
"3101 Peck Street","Rye Beach",NH,03871
"13 Swick Hill Street",Angleton,TX,77515
"57 Scenicview Drive",Toyah,TX,79785
"2114 Oakway Lane","Woodland Hills",CA,91303
"4017 Concord Street",Lawndale,NC,28090
"1075 Romrog Way",Wilsonville,NE,69046
"1194 Green Acres Road","Rocky Mount",NC,27801
"1293 Hinkle Lake Road",Cambridge,MA,02138
"3069 Maple Street",Westminster,CA,92683
"531 Fantages Way",Star,ID,83669
"4740 Lewis Street",Lombard,IL,60148
"202 Glory Road",Winchester,TN,37398
"3176 Red Hawk Road","Long Prairie",MN,56347
"1362 Leverton Cove Road",Springfield,MA,01103
"1808 Bridge Avenue",Crowley,LA,70526
"3223 Finwood Road",Wayne,NJ,07477
"4402 Green Gate Lane",Baltimore,MD,21202
"3401 Hartland Avenue","De Pere",WI,54115
"731 Archwood Avenue","Mountain View",WY,82939
"343 Ford Street",Fremont,CA,94539
"891 Fulton Street","Beech Bottom",WV,26030
"769 School House Road",Hattiesburg,MS,39402
"250 Oakdale Avenue","Avon Park",FL,33825
"1304 Dale Avenue",Kent,WA,98032
"1241 Harrison Street","San Rafael",CA,94909
"1005 Irish Lane",Madison,WI,53718
"3699 Bridge Avenue",Ragley,LA,70657
"1618 Laurel Lee",Goodhue,MN,55027
"1360 Mapleview Drive",Clearwater,FL,34621
"4331 Harley Brook Lane","Port Allegany",PA,16743
"1389 Union Street",Seattle,WA,98108
"4411 Raoul Wallenberg Place",Stamford,CT,06902
"4341 Cooks Mine Road",Albuquerque,NM,87111
"2221 Southern Avenue","Garden Grove",IA,50103
"1343 Walnut Drive",Langdon,ND,58249
"4014 Frosty Lane",Spencer,NY,14883
"1802 Bubby Drive",Austin,TX,78704
"2448 Coolidge Street",Circle,MT,59215
"4258 Payne Street",Meadowview,VA,24361
"3488 Waldeck Street",Arlington,TX,75760
"561 Owen Lane",Youngstown,OH,44503
"1153 Conference Center Way",Dushore,PA,18614
"2839 Alpaca Way",Anaheim,CA,92805
"981 Ella Street","San Jose",CA,95134
"2511 Marie Street",Laurel,MD,20707
"3882 County Line Road","St Petersburg",FL,33701
"893 Michigan Avenue",Portland,PA,97205
"4376 Polk Street",Tucson,AZ,85704
"1786 Hampton Meadows",Concord,MA,01742
"141 Brown Bear Drive",Corona,CA,91720
"4016 Hickory Ridge Drive","Las Vegas",NV,89109
"665 Elk Rd Little",Albany,NY,12207
"2624 Elliott Street",Nashua,NH,03061
"1184 Clarence Court",Bolivia,NC,28422
"4353 Laurel Lane",Sanderson,TX,79848
"1312 Tuna Street",Southfield,MI,48075
"3809 Broadcast Drive",Sterling,VA,20166
"2368 Olive Street",Toledo,OH,43609
"3656 Parrill Court","Crown Point",IN,46307
"2659 Farland Street",Westchester,IL,60154
"1151 Beechwood Avenue","Jersey City",NJ,07305
"4037 Kincheloe Road",Stayton,OR,97383
"2179 Emily Renzelli Boulevard","San Jose",CA,95113
"111 Davis Court",Enfield,IL,62835
"4228 Godfrey Street","Beaver Creek",OR,97004
"599 Briarwood Road",Springfield,MO,65806
"2337 Valley View Drive",Boston,MA,02110
"870 Harter Street",Dayton,OH,45402
"3646 Green Avenue","San Jose",CA,95113
"4854 Sundown Lane",Paige,TX,78659
"58 Rainbow Road",Alhambra,CA,91801
"2922 Pineview Drive",Freeborn,MN,56032
"4220 Jacobs Street",Pittsburgh,PA,15238
"215 Levy Court",Worcester,MA,01610
"2303 Hill Street",Defiance,OH,43512
"3863 Richards Avenue",Riverbank,CA,95367
"3895 Hardman Road",Brattleboro,VT,05301
"589 Maple Lane",Birmingham,AL,35222
"109 Skinner Hollow Road",Eddyville,OR,97343
"4406 Custer Street",Kersey,PA,15846
"759 Fort Street","New Bern",NC,28562
"565 Pine Tree Lane",Reston,MD,20191
"1649 Eden Drive",Richmond,VA,23227
"4212 North Bend River Road",Lexington,KY,40507
"3599 Candlelight Drive","Porter Heights",TX,77365
"4667 New Creek Road",Anniston,AL,36201
"3612 Birch Street",Carmel,IN,46032
"3057 Oak Ridge Drive",Rolla,MO,65401
"386 Main Street",Everett,WA,98204
"2359 Leroy Lane",Wilmot,SD,57279
"1011 Broadway Street","Moncks Corner",SC,29461
"3231 White Oak Drive",Independence,MO,64052
"4340 Ottis Street","Oklahoma City",OK,73109
"4596 Jerome Avenue",Harlingen,TX,78550
"4368 Vernon Street",Earp,CA,92242
"1866 Byers Lane",Paradise,CA,95969
"2521 Lakewood Drive",Wyckoff,NJ,07481
"1376 Long Street",Clermont,FL,32711
"468 Single Street",Kingston,MA,02364
"4073 Coventry Court",Biloxi,MS,39531
"4525 Fulton Street",Weirton,WV,26062
"3129 Horner Street",Akron,OH,44307
"4702 Berry Street","Colorado Springs",CO,80904
"4887 Oak Avenue",Wayne,NJ,07477
"1231 Union Street",Seattle,WA,98109
"4952 Ferguson Street",Attleboro,MA,02703
"2222 Parrish Avenue",Salinas,CA,93901
"3920 Penn Street","St Robert",MO,65473
"1788 Argonne Street",Eagleville,DE,19403
"2496 Heather Sees Way",Commerce,OK,74339
"3258 Heather Sees Way",Shidler,OK,74652
"3338 Sycamore Circle","Fort Worth",TX,76104
"1801 Linda Street",Newark,PA,19714
"2296 Rowes Lane",Louisville,KY,40202
"1803 Locust Court","Long Beach",CA,90802
"2819 Center Avenue",Fresno,CA,93704
"3557 Hickman Street",Geneva,IL,60134
"1502 Ferrell Street",Coleraine,MN,55722
"124 Dola Mine Road",Raleigh,NC,27607
"466 Hartway Street",Stickney,SD,57375
"2934 Dovetail Estates",Tulsa,OK,74120
"4816 Lodgeville Road",Minneapolis,MN,55402
"4150 Rollins Road","Grand Island",NE,68801
"1867 Stroop Hill Road",Atlanta,GA,30303
"3797 Morgan Street",Pensacola,FL,32507
"3387 Walnut Hill Drive",Sharonville,OH,45241
"2273 Lamberts Branch Road",Doral,FL,33166
"2902 Swick Hill Street","Dime Box",TX,77853
"2962 Berry Street",Saguache,CO,81149
"563 Hood Avenue","Rancho Sante Fe",CA,92067
"2118 Heavner Court",Bohemia,NY,11716
"4540 Meadow Drive","Oklahoma City",OK,73135
"1091 Benedum Drive",Circleville,NY,10919
"4767 Woodstock Drive",Anaheim,CA,92801
"3913 Henry Ford Avenue","New York",NY,10038
"1006 Coal Road",Avoca,PA,18641
"2579 Tuna Street","Bloomfield Township",MI,48302
"2316 Vine Street","Lake Forest",IL,60045
"1899 George Street",Ocala,FL,34471
"4246 C Street","Fall River",MA,02720
"873 Mount Street","Bay City",MI,48706
"2833 Tree Frog Lane","Kansas City",MO,64106
"3520 Hog Camp Road",Schaumburg,IL,60173
"4834 Alfred Drive","New York",NY,10011
"2344 Emeral Dreams Drive",Chicago,IL,60601
"3528 Tipple Road",Portland,PA,97205
"2175 Lady Bug Drive","Staten Island",NY,10312
"4869 Melody Lane",Cartersville,VA,23027
"4334 Desert Broom Court",Teterboro,NJ,07608
"4032 Westfall Avenue",Owatonna,MN,55060
"1302 Spruce Drive",Wexford,PA,15090
"2174 Valley Street",Berlin,NJ,08009
"4310 Richland Avenue",Spring,TX,77388
"2671 Veltri Drive",Homer,AK,99603
"4035 Hall Street",Henderson,NV,89015
"952 Butternut Lane",Albion,IL,62806
"1902 Fowler Avenue",Richmond,IN,47374
"2069 Oliverio Drive",Fowler,KS,67844
"107 Maple Court",Philadelphia,MO,63463
"2027 Dancing Dove Lane",Whitestone,NY,11357
"462 Eagle Drive","Ann Arbor",MI,48104
"732 College Avenue",Xenia,OH,45385
"3917 Owagner Lane",Seattle,WA,98101
"2891 Woodland Drive",Atlantic,IA,50022
"1205 Melrose Street","Spokane Valley",WA,99206
"3344 Pride Avenue","Staten Island",NY,10312
"264 Rebecca Street",Deerfield,IL,60015
"4496 Burton Avenue",Memphis,TN,38117
"831 Saint Clair Street",Greenwood,MS,38930
"2842 Grant Street",Whitehouse,TX,75791
"4269 Stroop Hill Road",Atlanta,GA,30309
"4294 Bryan Avenue",Eagan,MN,55121
"2051 Bassel Street",Slidell,LA,70458
"1823 Daffodil Lane",Reston,VA,22070
"330 Kelly Drive",Charleston,WV,25301
"3665 Harper Street","Bowling Green",KY,42101
"214 Rhapsody Street","Mount Dora",FL,32757
"1705 Rubaiyat Road",Eastport,MI,49627
"2989 Center Street",Monument,OR,97864
"2957 Heliport Loop",Jasper,IN,47546
"4344 Lonely Oak Drive",Mobile,AL,36602
"256 Columbia Road",Philadelphia,DE,19108
"1245 John Calvin Drive",Summit,IL,60501
"3071 Calvin Street",Hanover,MD,21076
"443 Aspen Court",Boston,MA,02114
"430 Heavens Way","Los Angeles",CA,90017
"1974 Russell Street",Boston,MA,02110
"3640 Gambler Lane",Houston,TX,77060
"1412 Filbert Street",Bensalem,PA,19020
"4843 Hilltop Street",Chicopee,MA,01013
"1595 Poplar Chase Lane",Boise,ID,83702
"1192 Sumner Street","Rancho Dominguez",CA,90220
"457 Locust Street","Lake Blackshear",GA,31735
"1281 Trails End Road",Miami,FL,33131
"3159 Short Street",Austin,TX,78701
"2272 Layman Court",Dallas,GA,30132
"696 Bryan Avenue",Minneapolis,MN,55415
"4954 West Fork Street",Helena,MT,59601
"692 Mercer Street","Eau Claire",WI,54701
"1634 Bryan Avenue",Minneapolis,MN,55404
"1067 Lochmere Lane",Hartford,CT,06103
"3023 Goldcliff Circle",Washington,DC,20024
"1538 Cimmaron Road",Irvine,CA,92614
"4007 Ross Street","Mount Carmel",IL,62863
"4736 Willis Avenue","Daytona Beach",FL,32114
"2240 Christie Way",Danvers,MA,01923
"4289 Leroy Lane",Harold,KY,41635
"2596 Patterson Fork Road",Chicago,IL,60605
"1144 Front Street",Westland,MI,48185
"571 Lawman Avenue",Washington,VA,20011
"2276 Pretty View Lane","Santa Rosa",CA,95407
"2347 Nicholas Street",Topeka,KS,66606
"4361 Sugarfoot Lane",Oxford,IN,47971
"3270 Fairway Drive","San Francisco",CA,94124
"4950 Oakwood Circle","Laguna Beach",CA,92651
"2861 Cambridge Court",Lincoln,AR,72744
"640 Vernon Street","Palm Springs",CA,92262
"4382 Chardonnay Drive",Montesano,WA,98563
"3185 Gnatty Creek Road",Huntington,NY,11743
"1236 Haven Lane",Lansing,MI,48933
"3875 Java Lane",Orangeburg,SC,29115
"1594 Hillcrest Drive",Tacoma,WA,98402
"2815 Spadafore Drive",Shippenville,PA,16254
"4255 Fairway Drive",Concord,CA,94520
"3332 Wayside Lane","San Francisco",CA,94108
"4923 Angie Drive",Menasha,WI,54952
"2136 Sugar Camp Road",Tracy,MN,56175
"983 Thomas Street","Arlington Heights",IL,60005
"4702 Birch  Street","El Paso",TX,79930
"3694 Middleville Road",Alhambra,CA,91801
"2586 Carson Street",Cincinnati,KY,45202
"573 Robinson Lane","South Point",OH,45680
"1081 Redbud Drive","New York",NY,10013
"1720 Bird Street",Gallup,NM,87301
"148 Hill Haven Drive",Seattle,WA,98109
"4173 Cemetery Street",Salinas,CA,93901
"2932 Pineview Drive",Jackson,MN,56143
"2486 Hillcrest Circle","Golden Valley",MN,55427
"2591 Austin Avenue",Savannah,GA,31405
"1001 Bryan Avenue",Shoreview,MN,55126
"4378 Lowland Drive",Coleta,IL,61081
"4945 Deer Haven Drive",Greenville,SC,29601
"1746 Mudlick Road",Yakima,WA,98902
"4098 Station Street",Austin,TX,78756
"1524 Fleming Street",Enterprise,AL,36330
"2565 Dola Mine Road",Louisburg,NC,27549
"3433 Nuzum Court",Getzville,NY,14068
"1668 River Road","Colorado Springs",CO,80903
"1981 Romano Street",Boston,MA,02199
"88 Briarhill Lane",Akron,OH,44308
"4488 Cost Avenue","Chevy Chase",MD,20815
"1623 Luke Lane",Durant,OK,74701
"2368 Roosevelt Wilson Lane",Muscoy,CA,92407
"2250 Chapel Street",Baytown,TX,77520
"3940 Hide A Way Road",Orlando,FL,32810
"4717 Khale Street",Walterboro,SC,29488
"716 Poe Lane",Mission,KS,66202
"2887 Cost Avenue",Alexandria,MD,22304
"4584 Worley Avenue","South Hill",VA,23970
"159 Washburn Street","Baton Rouge",LA,70814
"2296 Stoney Lonesome Road",Williamsport,PA,17701
"2154 Morgan Street",Pensacola,FL,32501
"4259 Cedar Lane",Boston,MA,02109
"295 Vine Street","Elk Grove Village",IL,60007
"1537 Woodland Avenue","New Orleans",LA,70171
"1282 Jerome Avenue",Harlingen,TX,78550
"3272 Wines Lane",Houston,TX,77002
"773 Alfred Drive",Queens,NY,11103
"731 Penn Street",Stlouis,MO,63101
"2872 Westwood Avenue","Garden City",NY,11530
"4822 Bates Brothers Road",Columbus,OH,43085
"939 Highland View Drive",Sacramento,CA,95815
"4822 Maxwell Farm Road",Harrisonburg,VA,22801
"4876 Coplin Avenue",Phoenix,AZ,85023
"1835 Glenview Drive","Corpus Christi",TX,78401
"3955 Hart Ridge Road","Bay City",MI,48706
"2328 Taylor Street",Harrison,NY,10528
"1794 Stanley Avenue","New York",NY,10017
"1651 Big Elm","Kansas City",MO,64106
"424 Hedge Street",Bernardsville,NJ,07924
"1344 Spring Haven Trail",Montclair,NJ,07042
"4345 Rafe Lane",Corinth,MS,38834
"4555 College Street",Atlanta,GA,30338
"3740 Brookview Drive",Kirbyville,TX,75956
"1258 Keyser Ridge Road",Elkin,NC,28621
"1690 Kelly Street",Grover,NC,28073
"4320 Hope Street",Portland,OR,97205
"4274 Mapleview Drive","Plant City",FL,33566
"2020 Florence Street",Howe,TX,75459
"734 Mattson Street",Portland,OR,97205
"1823 Joanne Lane",Chelmsford,MA,01824
"1939 School House Road",Jackson,MS,39213
"3253 Grove Avenue",Blackwell,OK,74631
"4294 Fancher Drive",Dallas,TX,75216
"4656 Collins Street",Eldred,PA,16731
"752 Corbin Branch Road",Chattanooga,TN,37408
"1812 Duke Lane","Asbury Park",NJ,07712
"3035 Broaddus Avenue","Bowling Green",KY,42101
"3681 Birch Street",Greenwood,IN,46142
"2567 Alpha Avenue",Kilgore,TX,75662
"4699 Granville Lane",Newark,NJ,07102
"4101 Pinnickinnick Street",Newark,NJ,07102
"843 Sherwood Circle",Greensboro,NC,27410
"2832 Gandy Street",Stlouis,MO,63101
"4400 Boggess Street","Wichita Falls",TX,76308
"2051 Stonecoal Road",Mansfield,OH,44992
"3176 Clousson Road","Sergeant Bluff",IA,51054
"3091 Crowfield Road",Phoenix,AZ,85021
"3065 Masonic Drive",Glasgow,MT,59230
"537 Jewell Road",Minneapolis,MN,55402
"1479 Stonepot Road",Branchburg,NJ,08817
"1936 Crestview Terrace",Hondo,TX,78861
"4183 University Hill Road",Springfield,IL,62701
"1138 Commerce Boulevard",Fairbury,NE,68352
"2464 Boring Lane",Dublin,CA,94568
"4608 Junkins Avenue",Albany,GA,31707
"4781 Meadowview Drive",Roanoke,VA,24011
"4131 Ritter Avenue",Southfield,MI,48075
"1049 Willow Greene Drive",Opelika,AL,36801
"2476 Better Street",Savannah,GA,31408
"82 Hill Croft Farm Road","Happy Camp",CA,96039
"489 Gladwell Street",Longview,TX,75601
"131 Arthur Avenue",Joliet,IL,60432
"63 Chardonnay Drive",Redmond,WA,98052
"2208 Goodwin Avenue",Millwood,WA,99212
"2789 Pearcy Avenue",Milwaukee,WI,53202
"2944 Hiney Road","Las Vegas",NV,89102
"4822 Jim Rosa Lane","San Francisco",CA,94143
"460 Union Street",Seattle,WA,98101
"1842 Edington Drive",Buford,GA,30518
"2854 Williams Avenue",Newhall,CA,91321
"702 Haymond Rocks Road",Hermiston,OR,97838
"4620 Archwood Avenue",Moorcroft,WY,82721
"4516 Aaron Smith Drive","Camp Hill",PA,17011
"3667 Farnum Road","New York",NY,10018
"1225 Elkview Drive","West Palm Beach",FL,33410
"2138 Spring Avenue",Reston,PA,20191
"1843 Mulberry Street",Houston,TX,77032
"1832 Ross Street",Elizabethtown,IL,62931
"3947 Irving Road",Worthington,OH,43085
"507 Webster Street","New Brunswick",NJ,08901
"2600 Isaacs Creek Road",Waverly,IL,62692
"252 Daffodil Lane",Reston,VA,22090
"1783 Clover Drive",Burlington,CO,80807
"1927 Breezewood Court",Norwich,KS,67118
"4578 Dola Mine Road",Raleigh,NC,27612
"2413 Main Street",Tukwila,WA,98168
"1188 Limer Street",Rome,GA,30165
"4561 Steele Street","Downers Grove",IL,60515
"1078 Hillview Street",Columbia,SC,29201
"140 County Line Road",Tampa,FL,33634
"1790 Monroe Avenue",Bradenton,FL,34205
"1583 Romano Street",Worcester,MA,01608
"2322 Dawson Drive","Little Rock",AR,72212
"1955 Pursglove Court",Troy,OH,45373
"1622 Jewell Road",Minneapolis,MN,55401
"1765 Round Table Drive",Cincinnati,OH,45249
"2655 Spadafore Drive","State College",PA,16803
"377 Pheasant Ridge Road",Philadelphia,PA,19103
"3916 Woodhill Avenue",Manor,MD,21111
"4616 Diamond Street",Asheville,NC,28801
"2336 Bernardo Street",Evansville,IN,47715
"3366 Pineview Drive",Mankato,MN,56001
"2170 Maryland Avenue",Pinellas,FL,34624
"801 Brown Bear Drive",Riverside,CA,92503
"142 Garfield Road",Bartonville,IL,61607
"1289 Spruce Drive",Pittsburgh,PA,15222
"4472 Wood Street",Houma,LA,70360
"471 Anmoore Road",Brooklyn,NY,11213
"3408 Boone Crockett Lane",Lopez,WA,98261
"704 Sugar Camp Road",Minneapolis,MN,55402
"4894 Emeral Dreams Drive",Gardner,IL,60424
"3986 Maloy Court",Clyde,KS,66938
"3478 Lighthouse Drive",Branson,MO,65616
"2916 Grove Street",Shoreham,NY,11786
"2756 Shearwood Forest Drive",Manchester,NH,03101
"2360 Grant Street",Gladewater,TX,75647
"3417 Hardesty Street",Albany,NY,12207
"4606 Jarvis Street",Buffalo,NY,14202
"4258 Woodrow Way",Houston,TX,77056
"4573 Fairmont Avenue","Kansas City",MO,64106
"877 Hill Haven Drive",Seattle,WA,98161
"750 Catherine Drive",Edmunds,ND,58434
"101 Lyndon Street","Upper Darby",PA,19082
"4311 Coffman Alley",Owensboro,KY,42301
"2404 Grasselli Street",Dover,NH,03820
"2522 Maxwell Street",Hartford,CT,06103
"52 Henry Ford Avenue",Tulsa,OK,74145
"239 Birch  Street","Fort Hancock",TX,79839
"2901 Railroad Street",Marquette,MI,49855
"1256 Wood Street",Madisonville,LA,70447
"483 Village View Drive","Fort Myers",FL,33912
"2320 Ella Street",Brisbane,CA,94005
"4136 Science Center Drive","Idaho Falls",ID,83402
"1487 Jenna Lane","Des Moines",IA,50317
"275 Elliot Avenue",Seattle,WA,98109
"2731 Neuport Lane",Norcross,GA,30071
"4174 Sardis Sta","Fort Worth",TX,76106
"2391 Wood Street","Houghton Point",MI,48629
"4107 McDowell Street",Fayetteville,TN,37334
"1713 Cheshire Road",Bridgeport,CT,06604
"3906 Adamsville Road",Laredo,TX,78040
"4114 Cottonwood Lane","Grand Rapids",MI,49503
"2690 Simpson Avenue",Lewisberry,PA,17339
"4681 Stutler Lane",Somerset,PA,15501
"538 John Avenue","East Lansing",MI,48823
"4578 Goosetown Drive",Asheville,NC,28806
"2683 Chapel Street",Houston,TX,77002
"1295 Shinn Avenue",Pittsburgh,PA,15212
"2595 Mount Street",Harrison,MI,48625
"4898 Steele Street",Northbrook,IL,60062
"2379 Alpha Avenue",Longview,TX,75601
"2197 Cabell Avenue",Nokesville,VA,22123
"3036 Nickel Road","El Monte",CA,91731
"3853 Reeves Street",Brussels,WI,54204
"1596 Crosswind Drive",Owensboro,KY,42301
"3084 Straford Park",Pittsburg,KY,40741
"4114 Candlelight Drive",Houston,TX,77002
"2956 Geneva Street",Corona,NY,11368
"3650 Hamilton Drive",Cambridge,MD,21613
"4055 Saint Marys Avenue","Black River",NY,13612
"60 Lindale Avenue",Oakland,CA,94612
"1210 Orchard Street",Bloomington,MN,55431
"3083 Biddie Lane",Richmond,VA,23228
"2666 Chestnut Street",Clearwater,FL,34623
"3433 Hall Valley Drive",Huntington,WV,25701
"807 Kenwood Place","Fort Lauderdale",FL,33301
"4143 Small Street","New York",NY,10016
"2072 Oakridge Farm Lane",Hartland,WI,53029
"1773 Lang Avenue",Tooele,UT,84074
"148 Joes Road",Albany,NY,12207
"1277 Cimmaron Road",Fullerton,CA,92632
"2156 Aviation Way","Los Angeles",CA,90017
"2430 Rollins Road","Grand Island",NE,68801
"3320 Calico Drive",Colville,WA,99114
"1026 Garfield Road",Peoria,IL,61615
"2705 Walkers Ridge Way",Northbrook,IL,60062
"1023 Lakeland Park Drive",Gainesville,GA,30501
"1628 Southern Street","Floral Park",NY,11001
"471 Davisson Street",Albany,IN,47320
"2037 Dye Street",Phoenix,AZ,85016
"3618 Alexander Drive",Denton,TX,76201
"213 Reppert Coal Road",Southfield,MI,48075
"1986 Scheuvront Drive",Northglenn,CO,80221
"3485 Tecumsah Lane",Natchitoches,LA,71457
"4441 Sugarfoot Lane",Lafayette,IN,47905
"1218 Ryder Avenue",Seattle,WA,98101
"3732 Paul Wayne Haggerty Road",Kenner,LA,70065
"3030 Biddie Lane",Richmond,VA,23228
"4280 Fincham Road","Mira Loma",CA,91752
"651 Adonais Way",Norcross,GA,30071
"4393 Whitetail Lane",Dallas,TX,75204
"1538 Tree Top Lane","King Of Prussia",PA,19406
"4698 Adams Avenue",Washington,MD,20004
"4880 Bell Street","New York",NY,10019
"3545 Selah Way","White River Junction",VT,05001
"3355 Timber Oak Drive",Oxnard,CA,93032
"4612 Cedar Street",Jonesboro,AR,72401
"624 Northwest Boulevard",Secaucus,NJ,07094
"1314 Hilltop Street",Springfield,MA,01103
"1761 Farland Street",Bedford,MA,01730
"392 Lincoln Drive",Manheim,PA,17545
"120 Ward Road","El Paso",TX,79906
"488 Meadow Lane",Oakland,CA,94612
"2922 Fleming Street",Montgomery,AL,36104
"3359 Jody Road",Philadelphia,PA,19103
"418 Windy Ridge Road","Fort Wayne",IN,46804
"1072 Winding Way",Newport,RI,02840
"1425 Clay Street",Indianapolis,IN,46254
"123 Flinderation Road","Orland Park",IL,60462
"2489 Chapmans Lane",Belen,NM,87002
"4709 Quiet Valley Lane","Sherman Oaks",CA,91403
"2443 College Street",Atlanta,GA,30340
"3706 Joseph Street","Sheboygan Falls",WI,53085
"4662 Kildeer Drive",Worthington,OH,43085
"4649 McVaney Road",Hendersonville,NC,28727
"4422 Augusta Park","Saint Albans",WV,25177
"1749 Pooh Bear Lane",Troy,SC,29848
"2702 Caldwell Road",Rochester,NY,14604
"1351 County Line Road","St Petersburg",FL,33701
"4341 Jail Drive",Bloomington,IL,61701
"3734 Stoneybrook Road",Orlando,FL,32810
"4027 Timbercrest Road","Pump Station Four",AK,99701
"3875 Baker Avenue",Irving,TX,75063
"1341 Myra Street",Providence,RI,02903
"2049 Horseshoe Lane","Fort Washington",PA,19034
"1583 Melrose Street",Yakima,WA,98908
"2400 Freshour Circle","San Antonio",TX,78205
"4711 Spring Haven Trail",Lyndhurst,NJ,07071
"1943 Evergreen Lane","South Gate",CA,90280
"3283 Stratford Park",Evansville,IN,47711
"1005 Flint Street",Saipan,MP,96950
"4564 Court Street",Wentzville,MO,63385
"328 Short Street",Austin,TX,78723
"2624 Henery Street",Wichita,KS,67202
"863 Oakway Lane",Glendale,CA,91204
"2734 Gorby Lane",Hattiesburg,MS,39402
"3076 Kooter Lane",Charlotte,NC,28202
"3327 Summit Park Avenue",Mobile,AL,36602
"3567 Edsel Road","Van Nuys",CA,91405
"3512 Lost Creek Road",Eagleville,PA,19403
"3302 Sampson Street",Denver,CO,80202
"436 Stonepot Road",Phillipsburg,NJ,08865
"2036 Dye Street",Chandler,AZ,85225
"1208 Aviation Way","Los Angeles",CA,90071
"4759 Hilltop Street",Springfield,MA,01103
"4566 Jadewood Farms",Irvington,NJ,07111
"1050 Traction Street",Charlotte,SC,28217
"1735 Tecumsah Lane",Davenport,IA,52804
"1424 Hickory Lane",Huntington,CT,06484
"105 Union Street",Seattle,WA,98109
"1319 Clay Street",Carmel,IN,46032
"4916 Worthington Drive",Plano,TX,75074
"2892 Middleville Road","La Puente",CA,91744
"2333 Hartway Street","Lake Norden",SD,57248
"1357 Bobcat Drive",Washington,MD,20200
"4544 Matthews Street",Sterling,IL,61081
"583 Cemetery Street",Houston,TX,77098
"4170 Rinehart Road",Sunrise,FL,33323
"2004 Boring Lane",Oakland,CA,94612
"829 Creekside Lane","San Luis Obispo",CA,93401
"3232 John Avenue",Lansing,MI,48910
"3624 Stiles Street",Crafton,PA,15205
"2401 Freedom Lane",Merced,CA,95340
"1719 Hill Croft Farm Road",Coleville,CA,96107
"1576 Ingram Street",Greenville,OH,45331
"2587 Armbrester Drive",Riverside,CA,92501
"2975 Palmer Road",Dublin,OH,43017
"209 Lee Avenue",Camden,NJ,08102
"2650 Jadewood Drive","Buffalo Grove",IL,60089
"2430 Rollins Road",Bartlett,NE,68622
"1768 Briarwood Road",Springfield,MO,65804
"2523 Leisure Lane",Carpinteria,CA,93013
"4240 Smithfield Avenue",Lubbock,TX,79410
"3552 Haymond Rocks Road",Eugene,OR,97402
"3297 Irving Place","Saint Clair",MO,63077
"2089 Froe Street",Wheeling,WV,26003
"2435 Brighton Circle Road",Danbury,MN,54830
"3010 Agriculture Lane",Charleston,WV,25301
"180 Beeghley Street",Waco,TX,76701
"3033 Griffin Street",Phoenix,AZ,85009
"4059 Driftwood Road","Santa Clara",CA,95054
"1720 Martha Ellen Drive",Stagecoach,NV,89429
"222 Burnside Avenue","Park City",UT,84060
"3284 Dogwood Lane",Tucson,AZ,85712
"1053 Sunny Glen Lane","Garfield Heights",OH,44128
"1940 Angie Drive",Burbank,CA,91505
"4251 Turnpike Drive",Birmingham,AL,35203
"874 Layman Court","Peachtree City",GA,30269
"4677 Dogwood Lane",Marana,AZ,85653
"1645 Flinderation Road",Bensenville,IL,60106
"4358 Alexander Avenue","San Ramon",CA,94583
"899 Midway Road",Fayetteville,AR,72701
"2715 Nicholas Street",Topeka,KS,66612
"2378 Whitman Court",Greenwich,CT,06830
"2841 Haymond Rocks Road",Burns,OR,97720
"3854 Lodgeville Road",Richfield,MN,55423
"2476 Hidden Pond Road",Nashville,TN,37206
"3504 Walnut Drive",Kenmare,ND,58746
"635 Old House Drive",Piketon,OH,45661
"4935 Werninger Street",Houston,TX,77032
"246 Carolyns Circle",Dallas,TX,75204
"2997 West Fork Street",Helena,MT,59601
"2564 Hill Croft Farm Road",Sacramento,CA,95814
"2854 Orphan Road","Eau Claire",WI,54701
"4797 Sugarfoot Lane",Lafayette,IN,47906
"4151 Wetzel Lane","Grand Rapids",MI,49503
"2897 Kelly Drive",Clarksburg,WV,26301
"1994 Heavner Court",Manhattan,NY,10016
"1477 Hope Street",Sunnyvale,TX,75182
"4150 Poco Mas Drive",Frisco,TX,75034
"1391 Nancy Street",Fayetteville,NC,28301
"3786 Southern Avenue","O Fallon",MO,63366
"3893 Aaron Smith Drive",Chambersburg,PA,17201
"2093 Amethyst Drive","Grand Rapids",MI,49503
"3681 Werninger Street",Houston,TX,77032
"3555 Kimberly Way",Allendale,MI,49401
"1724 Bel Meadow Drive",Riverside,CA,92507
"3669 Willow Greene Drive",Daleville,AL,36322
"4780 Roosevelt Wilson Lane",Highland,CA,92346
"2648 Rockford Road",Taunton,MA,02780
"3409 Stratford Park",Owensburg,IN,47453
"3165 Marietta Street","Santa Rosa",CA,95401
"785 Poplar Lane",Miami,FL,33131
"4990 Brooklyn Street",Roanoke,VA,24018
"1572 Caynor Circle",Lyndhurst,NJ,07071
"1832 Walton Street",Ogden,UT,84401
"777 Anmoore Road",Bronx,NY,10455
"1850 Langtown Road",Bettendorf,IA,52722
"4930 Main Street",Seattle,WA,98101
"414 Hanover Street","Garden City",NY,11530
"3798 Long Street","New York",NY,10004
"3707 Sunrise Road","Las Vegas",NV,89102
"4579 Veltri Drive",Alakanuk,AK,99554
"15 Havanna Street",Anderson,NC,27949
"1144 Eagle Drive",Trenton,MI,48183
"1664 Rosebud Avenue","Little Rock",AR,72212
"4084 Arlington Avenue","Lake Village",AR,71654
"2765 McVaney Road",Asheville,NC,28801
"4387 Green Street",Nashville,TN,37214
"4665 Hidden Meadow Drive",Forman,ND,58032
"3242 College Avenue",Dayton,OH,45429
"1296 Sherman Street",Havensville,KS,66432
"54 Lakeland Terrace","Ann Arbor",MI,48104
"3313 Gnatty Creek Road","Floral Park",NY,11001
"1089 Walnut Street",Jackson,MS,39211
"2060 Broaddus Avenue","Battle Creek",MI,49017
"3648 Shingleton Road",Cassopolis,MI,49031
"4982 Jennifer Lane",Raleigh,NC,27616
"2722 Berkley Street","Plymouth Meeting",PA,19462
"2245 Olive Street",Toledo,OH,43602
"4982 Delaware Avenue","San Francisco",CA,94115
"3034 Desert Broom Court","Red Bank",NJ,07701
"3249 Valley Lane",Austin,TX,78723
"3130 Settlers Lane","New York",NY,10016
"235 Private Lane",Valdosta,GA,31601
"2651 Traders Alley","Kansas City",MO,64106
"3008 Simpson Avenue",Schaefferstown,PA,17067
"4875 Paradise Lane",Pomona,CA,91766
"1136 Rainy Day Drive",Milton,MA,02186
"1954 Abia Martin Drive","New York",NY,10013
"2884 Simpson Street","East Moline",IL,61244
"4719 Leverton Cove Road",Springfield,MA,01103
"1796 Oak Street",Winthrop,NY,13697
"318 Bicetown Road","Garden City",NY,11530
"3824 College Street",Atlanta,GA,30318
"2599 South Street",Midland,TX,79703
"894 Tator Patch Road",Chicago,IL,60610
"3262 Cliffside Drive",Norwich,NY,13815
"2960 Ridenour Street",Miami,FL,33169
"1255 Harrison Street","San Francisco",CA,94115
"4235 Ridenour Street",Miami,FL,33179
"4457 Rockwell Lane",Halifax,NC,27839
"1951 Sundown Lane",Austin,TX,78741
"439 Scenic Way",Springfield,IL,62707
"1603 Gerald L. Bates Drive",Quincy,MA,02169
"1975 Langtown Road",Davenport,IA,52807
"360 Smithfield Avenue",Cone,TX,79321
"4803 Terry Lane",Longwood,FL,32750
"3129 Alpaca Way","Yorba Linda",CA,92686
"3570 Bernardo Street",Evansville,IN,47712
"1277 Primrose Lane",Poynette,WI,53955
"2511 Summit Street",Davenport,IA,52806
"4109 Russell Street",Cambridge,MA,02141
"2127 Monroe Street",Houston,TX,77055
"889 Weekley Street","San Antonio",TX,78213
"4130 Sarah Drive","Lake Charles",LA,70629
"2044 Spinnaker Lane",Sterling,IL,61081
"1244 Rollins Road",Crawford,NE,69339
"818 Berkshire Circle",Knoxville,TN,37917
"2001 Garfield Road",Bloomington,IL,61704
"1200 Barnes Avenue",Cincinnati,OH,45244
"4927 Cooks Mine Road",Lovington,NM,88260
"2423 Jerome Avenue",Harlingen,TX,78550
"207 Charles Street",Milan,MI,48160
"1916 Gateway Road",Portland,OR,97212
"15 Duncan Avenue","New York",NY,10014
"677 Stratford Drive",Kona,HI,96740
"220 Norma Avenue","Apple Springs",TX,75926
"4921 Single Street",Boston,MA,02110
"2814 Golden Ridge Road",Albany,NY,12210
"2442 Emeral Dreams Drive","Arlington Heights",IL,60005
"943 Pearlman Avenue","S Boston",MA,02127
"102 Conifer Drive",Bellevue,WA,98004
"2509 Waldeck Street",Arlington,TX,76013
"872 Windy Ridge Road",Topeka,IN,46571
"1356 Isaacs Creek Road",Springfield,IL,62707
"2290 Aaron Smith Drive",York,PA,17403
"426 Bedford Street","West Haven",CT,06516
"1579 Coburn Hollow Road",Mackinaw,IL,61755
"388 Whitetail Lane","Cedar Hill",TX,75253
"2247 Anthony Avenue",Abilene,TX,79602
"1003 Maxwell Street","New Haven",CT,06511
"476 Russell Street",Worcester,MA,01608
"1418 Spring Avenue",Portland,PA,97205
"3626 Hog Camp Road",Wheeling,IL,60090
"3280 Irish Lane","De Forest",WI,53532
"4043 White Oak Drive",Raytown,MO,64133
"331 Scheuvront Drive",Centennial,CO,80112
"1950 Woodside Circle",Youngstown,FL,32466
"645 Coal Road",Trucksville,PA,18708
"4842 Monroe Avenue","Winter Haven",FL,33830
"4829 Poe Road",Charleston,SC,29424
"4696 Diamond Cove",Bedford,RI,01730
"4553 Hartland Avenue","Green Bay",WI,54301
"1245 Walnut Avenue","Jersey City",NJ,07304
"4624 American Drive",Milton,FL,32570
"4210 Arrowood Drive","Kingsley Lake",FL,32091
"2953 Five Points",Baltimore,MD,21231
"3358 Church Street",Brooklyn,NY,11227
"2357 Cityview Drive",Philadelphia,PA,19103
"980 Walnut Hill Drive",Cincinnati,OH,45202
"171 Giraffe Hill Drive",Dallas,TX,75287
"2821 Laurel Lee","Cottage Grove",MN,55016
"19 Bridge Street",Tulsa,OK,74103
"1564 Paul Wayne Haggerty Road","New Orleans",LA,70171
"2868 Eastland Avenue",Hattiesburg,MS,39401
"3218 Cottrill Lane",Stlouis,MO,63101
"2065 Half and Half Drive",Riverdale,CA,93656
"1388 Emily Renzelli Boulevard",Carmel,CA,93921
"381 Graystone Lakes",Milledgeville,GA,31061
"4554 Pringle Drive",Bridgeview,IL,60455
"167 Trails End Road","Pompano Beach",FL,33069
"2521 Winifred Way",Indianapolis,IN,46254
"2236 Tetrick Road",Okeechobee,FL,33472
"2691 Sugarfoot Lane",Thorntown,IN,46071
"606 Beeghley Street",Heflin,AL,36264
"1666 Norma Lane",Shreveport,LA,71101
"2603 Victoria Street",Chicago,IL,60631
"1979 Jehovah Drive",Fredericksburg,VA,22408
"318 Granville Lane",Madison,NJ,07940
"1264 Short Street",Austin,TX,78723
"1186 Stadium Drive",Wareham,MA,02571
"3838 Sycamore Street","Santa Clara",CA,95054
"4103 Sampson Street",Englewood,CO,80112
"3366 Heavner Avenue",Smyrna,GA,30080
"1930 Findley Avenue",Minot,ND,58701
"4863 Elk City Road",Shreveport,LA,71101
"4978 Clay Lick Road",Broomfield,CO,80020
"4311 Wyatt Street","Delray Beach",FL,33483
"3409 Sugar Camp Road",Owatonna,MN,55060
"174 George Avenue",Mobile,AL,36693
"2533 Cheshire Road",Stamford,CT,06902
"3081 Melville Street",Memphis,TN,38118
"3734 Frum Street",Nashville,TN,37027
"4372 Abner Road","Iron River",WI,54847
"2513 Chenoweth Drive",Nashville,TN,37201
"1508 Kennedy Court",Walpole,MA,02081
"1997 Terra Cotta Street",Hackensack,MN,56452
"3733 Morgan Street",Pensacola,FL,32501
"2530 Five Points",Baltimore,MD,21201
"1678 Chipmunk Lane",Seattle,WA,98109
"4974 Duck Creek Road","Palo Alto",CA,94306
"1951 Douglas Dairy Road","Max Meadows",VA,24360
"288 Paradise Lane","Mira Loma",CA,91752
"954 School Street",Beltsville,DC,20705
"2936 Chipmunk Lane",Portland,ME,04101
"1868 Briarwood Road",Cedarcreek,MO,65627
"4536 Rainbow Road","Los Angeles",CA,90017
"4159 Melville Street",Yorkville,TN,38389
"2707 Cambridge Place",Baltimore,MD,21215
"2474 Bedford Street","West Haven",CT,06516
"4996 Yorkie Lane",Waycross,GA,31501
"3194 Brown Avenue",Laurens,SC,29360
"3242 Seneca Drive",Salem,OR,97301
"189 Clement Street",Atlanta,GA,30303
"483 Beech Street","San Jose",CA,95134
"1238 Sycamore Circle",Fargo,ND,58102
"4221 Davis Lane",Denver,CO,80202
"2730 Shinn Street","New York",NY,10004
"4479 Rinehart Road",Miami,FL,33147
"329 Fancher Drive",Dallas,TX,75219
"513 Cottonwood Lane",Kentwood,MI,49512
"2029 Diane Street","City Of Commerce",CA,90040
"1240 Oliverio Drive",Syracuse,KS,67878
"2077 Star Trek Drive",Pensacola,FL,32505
"3138 Adonais Way",Atlanta,GA,30303
"1550 James Street",Wellsville,NY,14895
"2619 McKinley Avenue",Englewood,CO,80112
"1508 Sunny Glen Lane",Euclid,OH,44132
"2643 Trouser Leg Road",Springfield,MA,01103
"24 Yorkshire Circle","Rocky Mount",NC,27801
"4177 Roosevelt Wilson Lane",Muscoy,CA,92407
"4790 Late Avenue","Oklahoma City",OK,73102
"1272 Coventry Court",Biloxi,MS,39531
"1185 Libby Street","Los Angeles",CA,90017
"1815 Cheshire Road","New Haven",CT,06511
"515 Hope Street",Plano,TX,75023
"2553 Butternut Lane",Belleville,IL,62220
"4502 Robinson Court",Grayling,MI,49738
"1139 Moonlight Drive","Jersey City",NJ,07305
"3603 Mattson Street",Tigard,OR,97223
"1767 Henry Ford Avenue",Cushing,OK,74023
"4334 Warner Street",Casper,WY,82601
"1579 Quiet Valley Lane",Sepulveda,CA,91343
"1234 Windy Ridge Road",Roanoke,IN,46750
"2140 Harrison Street","San Rafael",CA,94909
"3780 Todds Lane","San Antonio",TX,78258
"1540 Hog Camp Road",Mokena,IL,60448
"1039 Glory Road",Clarksville,TN,37040
"3920 Haymond Rocks Road",Eugene,OR,97401
"284 Deans Lane","West Nyack",NY,10994
"2869 School House Road",Jackson,MS,39201
"2065 Rivendell Drive","Canal Fulton",OH,44614
"2201 Maxwell Farm Road",Sacramento,CA,95814
"1110 Davisson Street",Cloverdale,IN,46120
"4043 Glory Road",Byrdstown,TN,38549
"741 Carolyns Circle",Dallas,TX,75247
"4022 Green Avenue",Hayward,CA,94545
"63 Bernardo Street",Chandler,IN,47610
"3099 Glen Street",Sedalia,KY,42079
"2955 Hanover Street",Whitestone,NY,11357
"3362 Maxwell Farm Road",Glasgow,VA,24555
"2673 Tavern Place",Denver,CO,80205
"1524 Earnhardt Drive",Louisville,KY,40299
"3344 Roosevelt Wilson Lane",Highland,CA,92346
"3284 Highland View Drive",Sacramento,CA,95814
"3771 Henry Ford Avenue","New York",NY,10016
"116 Poplar Street","Vernon Hills",IL,60061
"623 Duffy Street",Gary,IN,46402
"3669 Lang Avenue",Tooele,UT,84074
"4977 Jenna Lane",Cincinnati,OH,45245
"4279 Oakway Lane",Glendale,CA,91204
"1777 Birch Street",Carmel,IN,46032
"35 Hall Valley Drive",Gormania,WV,26720
"3624 Joes Road",Albany,NY,12207
"724 Chandler Drive",Springfield,MO,65804
"4346 Ritter Avenue","Mount Clemens",MI,48043
"2525 Park Avenue",Sacramento,CA,95821
"3482 D Street","Bloomfield Township",MI,48302
"1825 Hartway Street",Wicksville,SD,57767
"1466 Alfred Drive","Staten Island",NY,10301
"181 Dola Mine Road",Morrisville,NC,27560
"4027 White Avenue","Corpus Christi",TX,78476
"1597 Harron Drive",Baltimore,MD,21202
"3198 Maple Court",Silex,MO,63469
"325 New Street","Pine Grove",OR,97037
"1368 Froe Street",Wheeling,WV,26003
"2249 Libby Street","West Los Angeles",CA,90025
"1125 Finwood Road",Lyndhurst,NJ,07071
"1615 Todds Lane","San Antonio",TX,78205
"1000 Kenwood Place","Ft Lauderdale",FL,33311
"4728 Murry Street",Norfolk,VA,23505
"2477 Oliverio Drive",Canton,KS,67428
"261 Kildeer Drive",Pomeroy,OH,45769
"1395 Brown Street",Cottonwood,AZ,86326
"2532 Byers Lane",Chico,CA,95926
"153 Beechwood Drive",Pittsburgh,PA,15205
"4238 Tyler Avenue","Key West",FL,33040
"604 Bingamon Road",Brecksville,OH,44141
"669 Tator Patch Road",Chicago,IL,60610
"2014 Hardesty Street",Albany,NY,12207
"587 Daffodil Lane",Herndon,VA,22090
"3131 Overlook Drive",Richmond,IN,47374
"4123 Snyder Avenue",Charlotte,NC,28210
"1621 Isaacs Creek Road",Fowler,IL,62338
"765 Sugarfoot Lane",Lafayette,IN,47904
"14 Moonlight Drive",Manahawkin,NJ,08050
"231 Anthony Avenue",Abilene,TX,79602
"1395 Marshall Street",Laurel,MD,20707
"2322 Ben Street","East Lansing",MI,48823
"2720 Buck Drive","South Burlington",VT,05403
"863 Grasselli Street","New Boston",NH,03070
"2300 Olen Thomas Drive",Frisco,TX,75034
"4423 Quiet Valley Lane","Los Angeles",CA,90017
"1287 Cook Hill Road",Branford,CT,06405
"4551 Bicetown Road","New York",NY,10016
"3228 Lynn Street",Somerville,MA,02143
"699 Ashwood Drive",Bedford,IA,50833
"1912 Carter Street",Grafton,IL,62037
"942 Pin Oak Drive",Downey,CA,90241
"115 Ritter Street",Huntsville,AL,35816
"4820 Terry Lane",Melbourne,FL,32901
"1131 Swick Hill Street",Houston,TX,77032
"3471 Swick Hill Street",Houston,TX,77006
"4170 Doe Meadow Drive",Olney,MD,20832
"4733 Monroe Street",Houston,TX,77026
"2354 Gorby Lane",Jackson,MS,39201
"736 Ventura Drive","Santa Cruz",CA,95062
"3204 Buckhannan Avenue",Syracuse,NY,13224
"269 Graystone Lakes",Macon,GA,31213
"3523 Park Avenue",Sacramento,CA,95814
"371 Concord Street",Charlotte,NC,28263
"2144 Hartway Street",Maurine,SD,57627
"2836 Fidler Drive","San Antonio",TX,78212
"3411 Catherine Drive",Moorhead,ND,56560
"4367 Willis Avenue","De Bary",FL,32713
"1640 Richards Avenue","La Grange",CA,95329
"4780 Newton Street","Saint Cloud",MN,56303
"463 Bassel Street",Thibodaux,LA,70301
"1497 Station Street","San Francisco",CA,94104
"2837 Emily Drive",Columbia,SC,29210
"1291 Pyramid Valley Road","South English",IA,52335
"1946 Abner Road",Rhinelander,WI,54501
"904 Prospect Street",Camden,NJ,08102
"3096 Hartway Street",Madison,SD,57042
"1742 Beeghley Street",Tolar,TX,76476
"2405 Elkview Drive","Riviera Beach",FL,33407
"2443 Forest Avenue","Fort Washington",NY,19034
"3945 Watson Lane","San Antonio",TX,78205
"3109 Small Street","New York",NY,10038
"2782 Seltice Way",Dayton,ID,83232
"885 Eagle Lane","Grand Forks",MN,58203
"1861 Stark Hollow Road",Denver,CO,80202
"988 Cambridge Court","Fort Smith",AR,72901
"713 Valley Street",Glassboro,NJ,08028
"4820 College View",Karnak,IL,62956
"2649 Ferguson Street",Bedford,MA,01730
"2752 Harter Street",Dayton,OH,45402
"2390 Luke Lane",Ardmore,OK,73401
"422 Sherman Street",Ozawkie,KS,66070
"2848 Oakridge Farm Lane",Waukesha,WI,53188
"3827 Murry Street","Virginia Beach",VA,23462
"2514 Jail Drive",Hawthorne,CA,90250
"2748 Adamsville Road",Mcallen,TX,78501
"665 Cinnamon Lane","San Antonio",TX,78205
"809 Vine Street",Chicago,IL,60606
"4665 Timbercrest Road",Indian,AK,99540
"2055 Fulton Street",Charleston,WV,25301
"4356 Nixon Avenue",Chattanooga,TN,37403
"1759 Saint Marys Avenue","Red Creek",NY,13143
"1655 Rose Street",Chicago,IL,60607
"1673 Glen Falls Road","Willow Grove",PA,19090
"2510 Windy Ridge Road","Fort Wayne",IN,46818
"2204 Pallet Street","New York",NY,10013
"4676 Bobcat Drive",Washington,MD,20008
"2743 Cameron Road","Bemus Point",NY,14712
"1521 Metz Lane",Bedford,MA,01730
"1908 Sand Fork Road","South Bend",IN,46625
"3176 Court Street","Saint Charles",MO,63301
"2316 Elk Creek Road",Duluth,GA,30136
"2934 Abner Road",Maple,WI,54854
"2262 Kerry Way",Anaheim,CA,92801
"3338 Turnpike Drive",Birmingham,AL,35222
"3740 Murry Street",Norfolk,VA,23505
"137 Saint Francis Way",Kenosha,WI,53142
"4974 Sardis Sta",Richardson,TX,75081
"2094 Duke Lane",Parsippany,NJ,07054
"2232 Wood Street","New Orleans",LA,70139
"2705 Johnson Street",Raleigh,NC,27604
"1730 Webster Street","New Brunswick",NJ,08901
"1872 Oakdale Avenue",Auburndale,FL,33823
"3318 Briercliff Road","New York",NY,10013
"1576 Conifer Drive",Seattle,WA,98161
"2837 Marion Drive",Tampa,FL,33602
"1400 Davisson Street",Richmond,IN,47374
"93 Bird Street",Carlsbad,NM,88220
"4786 Berkshire Circle",Knoxville,TN,37917
"3272 Spring Avenue",Philadelphia,PA,19108
"711 Round Table Drive",Glendale,OH,45246
"4404 Bedford Street","New Haven",CT,06510
"3222 Elkview Drive","Jensen Beach",FL,33457
"2983 Broadway Street",Florence,SC,29501
"3117 Marietta Street",Oakland,CA,94612
"496 Pinchelone Street",Portsmouth,VA,23707
"1480 Renwick Drive",Allentown,PA,18106
"3204 Sussex Court",Cisco,TX,76437
"1142 Meadow View Drive",Hartford,CT,06182
"1448 Valley View Drive",Milton,MA,02186
"2205 O Conner Street",Gulfport,MS,39501
"1070 Douglas Dairy Road",Ceres,VA,24315
"4116 Nelm Street",Haymarket,VA,22069
"661 Sunburst Drive","Bonita Springs",FL,33923
"3665 Lindale Avenue","San Francisco",CA,94107
"611 Brooke Street",Houston,TX,77092
"1178 Small Street","New York",NY,10017
"3629 Walnut Hill Drive",Sharonville,OH,45241
"2394 Mill Street",Greenville,SC,29601
"3299 Andell Road",Westerville,OH,43081
"4793 Benson Street","Lake Tomahawk",WI,54539
"767 Briarwood Road",Springfield,MO,65804
"612 Elk Rd Little",Tucson,AZ,85701
"1134 Green Avenue",Fremont,CA,94538
"4074 August Lane",Shreveport,LA,71101
"4798 Ashwood Drive",Anthon,IA,51004
"75 Goldie Lane",Cincinnati,OH,45202
"1784 Grey Fox Farm Road",Baytown,TX,77520
"4680 Lunetta Street",Sarasota,FL,34236
"3259 Whispering Pines Circle",Dallas,TX,75287
"4533 Matthews Street",Rockford,IL,61101
"585 Whispering Pines Circle",Lewisville,TX,75067
"539 Conference Center Way",Mifflinburg,PA,17844
"3988 Station Street",Concord,CA,94520
"1442 Franklin Avenue","Corpus Christi",TX,78401
"3237 Braxton Street","Burr Ridge",IL,61257
"888 Brighton Circle Road","Saint Cloud",MN,56303
"505 Sunburst Drive","Cypress Lake",FL,33907
"2583 McVaney Road",Hickory,NC,28601
"1837 Flanigan Oaks Drive",Bethesda,MD,20892
"392 Airplane Avenue",Wallingford,CT,06492
"1319 Calico Drive",Colville,WA,99114
"3608 Lee Avenue",Camden,NJ,08102
"868 Blair Court",Bunceton,MO,65237
"1783 Ford Street","Santa Clara",CA,95054
"4132 Diamond Cove",Ashaway,RI,02804
"3383 Heather Sees Way",Tahlequah,OK,74464
"592 Park Street",Moraga,CA,94556
"3609 Old House Drive",Chesapeake,OH,45619
"933 Eagle Drive",Plymouth,MI,48170
"2268 Modoc Alley","Idaho Falls",ID,83402
"3586 Huntz Lane",Salem,MA,01970
"3927 Hardman Road",Brattleboro,VT,05301
"718 Coleman Avenue","San Diego",CA,92101
"2329 Center Street","Jersey City",NJ,07304
"2498 Ward Road","El Paso",TX,79912
"2055 Redbud Drive","Garden City",NY,11530
"1813 Bryan Avenue",Minneapolis,MN,55415
"3754 Smith Street",Brockton,MA,02401
"4635 Crestview Terrace","Del Rio",TX,78840
"4403 Victoria Street",Chicago,IL,60631
"675 Boring Lane","San Francisco",CA,94108
"2641 Randall Drive",Hilo,HI,96720
"4256 Alexander Avenue",Concord,CA,94520
"4123 Aspen Court",Boston,MA,02110
"2926 Ward Road","West Nyack",NY,10994
"1716 Poplar Lane",Doral,FL,33178
"2293 Short Street",Austin,TX,78735
"2477 Wood Duck Drive",Marquette,MI,49855
"4223 Timber Oak Drive","El Rio",CA,93030
"3557 Hartland Avenue","De Pere",WI,54115
"1671 Bluff Street",Hagerstown,MD,21740
"282 Gateway Avenue","Santa Fe Springs",CA,90670
"2764 Upland Avenue",Redhaw,OH,44866
"1259 Milford Street",Portsmouth,NH,03801
"119 Oakwood Circle",Irvine,CA,92614
"3300 Court Street","Saint Louis",MO,63146
"3936 Conaway Street",Bloomington,IN,47408
"105 Bolman Court",Champaign,IL,61820
"4724 Andell Road",Nashville,TN,37201
"4879 George Avenue",Mobile,AL,36602
"955 Sardis Station",Minneapolis,MN,55405
"620 Neuport Lane",Norcross,GA,30071
"1857 Adams Avenue",Washington,MD,20004
"4557 Hartway Street",Sisseton,SD,57262
"3425 Shinn Avenue",Avella,PA,15312
"3508 Ritter Avenue",Southfield,MI,48075
"3313 Saint James Drive",Mifflintown,PA,17059
"3085 College View","O Fallon",IL,62269
"591 Eva Pearl Street","Baton Rouge",LA,70714
"3201 Goldcliff Circle",Washington,DC,20036
"442 Stonepot Road",Newark,NJ,07102
"1730 Simons Hollow Road",Bloomsburg,PA,17815
"2565 Huntz Lane",Framingham,MA,01702
"3525 Gerald L. Bates Drive",Cambridge,MA,02142
"731 Tenmile","Newport News",VA,23601
"4979 Veltri Drive","Au Train",MI,49806
"3452 Ashmor Drive",Fargo,MN,58102
"4163 Main Street",Redmond,WA,98052
"1429 Rosewood Lane","New York",NY,10019
"4224 Cottonwood Lane","Grand Rapids",MI,49508
"1576 Pretty View Lane",Occidental,CA,95465
"4262 Clinton Street",Newark,PA,19714
"4720 Hall Place",Dallas,TX,75247
"3831 Berry Street",Creede,CO,81130
"2904 Memory Lane",Rockford,IL,61101
"21 Ripple Street","Bay City",MI,48706
"544 Hill Haven Drive",Tacoma,WA,98499
"2721 Green Gate Lane",Baltimore,MD,21201
"4593 Orphan Road",Exeland,WI,54835
"2004 Carolina Avenue",Mcallen,TX,78501
"4950 Birch  Street","El Paso",TX,79915
"3708 Upland Avenue",Toledo,OH,43615
"2976 Wildrose Lane",Detroit,MI,48224
"2586 Marshville Road",Orangeburg,NY,10962
"4303 Coleman Avenue","Warner Springs",CA,92086
"2575 Pursglove Court",Dayton,OH,45429
"3485 Agriculture Lane",Miami,FL,33176
"510 Dola Mine Road",Durham,NC,27703
"4981 Kenwood Place","Fort Lauderdale",FL,33301
"2812 Riverside Drive",Augusta,GA,30906
"1566 Hoffman Avenue","New York",NY,10016
"3547 Lake Road",Princeton,NJ,08540
"4335 Riverside Drive",Ila,GA,30647
"3742 Grant View Drive","New Berlin",WI,53151
"2749 Lucy Lane",Evansville,IN,47710
"2589 Augusta Park",Dunbar,WV,25064
"454 Brighton Circle Road",Olivia,MN,56277
"2566 Virginia Street",Chicago,IL,60605
"3780 Dane Street",Millwood,WA,99212
"1662 Pyramid Valley Road",Washington,IA,52353
"17 Pheasant Ridge Road",Philadelphia,PA,19154
"1539 North Bend River Road",Somerset,KY,42501
"4547 Brown Street",Concord,CA,94520
"3988 Woodhill Avenue",Easton,MD,21601
"1881 Tator Patch Road",Chicago,IL,60605
"2457 Golden Street","North Dade",FL,33180
"738 Tetrick Road","Fort Myers",FL,33901
"842 Coal Street","Centre Hall",PA,16828
"4839 South Street",Charlottesville,VA,22903
"4188 Juniper Drive",Ashley,MI,48806
"3998 New Creek Road","Fort Payne",AL,35967
"4948 Pine Street",Portland,PA,97205
"4539 Northwest Boulevard",Washington,DC,20032
"2604 Commerce Boulevard",Fairbury,NE,68352
"753 Brown Street",Martinez,CA,94553
"2637 Irving Place",Wentzville,MO,63385
"640 Jefferson Street",Onancock,VA,23417
"1964 Duncan Avenue","New York",NY,10013
"2163 Monroe Street",Houston,TX,77036
"4188 Jody Road",Paoli,PA,19301
"3542 Poplar Avenue","San Diego",CA,92105
"3281 Warner Street",Orlando,FL,32801
"4148 Oakridge Lane",Dublin,GA,31021
"3448 Byrd Lane",Clovis,NM,88101
"3583 Centennial Farm Road",Carroll,IA,51401
"502 Geraldine Lane","New York",NY,10022
"2184 Simons Hollow Road",Berwick,PA,18603
"1800 Pinnickinnick Street",Lakewood,NJ,08701
"3821 Union Street",Seattle,WA,98101
"1264 Filbert Street","Fort Washington",PA,19034
"4839 Elk Rd Little",Tucson,AZ,85701
"2151 Lowes Alley",Westerville,OH,43081
"4617 Orchard Street",Minneapolis,MN,55410
"1498 Valley Drive",Philadelphia,PA,19108
"4539 Joy Lane",Glendale,CA,91204
"1562 Morningview Lane",Thornton,IA,50479
"4266 Washington Avenue",Metairie,MS,70001
"1339 Turkey Pen Lane",Montgomery,AL,36104
"163 Emma Street","White Deer",TX,79097
"3816 Skips Lane","Show Low",AZ,85901
"2878 Hillcrest Circle",Crystal,MN,55429
"3638 Angie Drive","Los Angeles",CA,90017
"3503 Steve Hunt Road",Miami,FL,33176
"573 Millbrook Road",Aurora,IL,60504
"1280 Ocala Street",Orlando,FL,32801
"53 Margaret Street",Houston,TX,77063
"859 Forest Avenue","New York",NY,10011
"3323 Caldwell Road",Rochester,NY,14620
"4474 Farnum Road","New York",NY,10022
"4641 John Avenue","East Lansing",MI,48823
"4671 Traders Alley",Belton,MO,64012
"3261 Woodridge Lane",Arlington,TN,38002
"2316 Sardis Station",Minneapolis,MN,55402
"3835 Stoney Lonesome Road",Stroudsburg,PA,18360
"4117 Oak Avenue",Deerfield,IL,60015
"1702 Hott Street","Oklahoma City",OK,73102
"1779 Carolyns Circle",Dallas,TX,75202
"3894 Poplar Lane",Doral,FL,33178
"1135 Friendship Lane","San Jose",CA,95136
"1087 Gateway Avenue",Bakersfield,CA,93304
"1174 Alpha Avenue",Jacksonville,FL,32202
"1508 Graystone Lakes",Macon,GA,31201
"759 Griffin Street",Phoenix,AZ,85041
"4319 Leroy Lane",Wilmot,SD,57279
"4870 Coal Road","Clarks Summit",PA,18411
"3745 Lynch Street","San Francisco",CA,94107
"1826 Crowfield Road",Phoenix,AZ,85032
"2500 Burton Avenue",Memphis,TN,38117
"1019 Jadewood Drive",Chicago,IL,60605
"264 Fire Access Road","Winston Salem",NC,27104
"1177 Smith Road",Lilburn,GA,30247
"626 Centennial Farm Road",Templeton,IA,51463
"1197 Austin Avenue",Brunswick,GA,31520
"4802 New Street","Coos Bay",OR,97420
"3073 Oakmound Drive",Chicago,IL,60661
"356 Fowler Avenue",Norcross,GA,30071
"4742 Cimmaron Road","Los Angeles",CA,90017
"3052 Goldcliff Circle",Washington,DC,20032
"2549 Fire Access Road",Greensboro,NC,27403
"4066 Benson Street",Marengo,WI,54855
"3629 Cecil Street",Chicago,IL,60606
"4517 Pallet Street","White Plains",NY,10641
"3628 Walton Street",Provo,UT,84606
"2252 Hilltop Drive",Lubbock,TX,79401
"78 Hamill Avenue","San Diego",CA,92111
"583 McDowell Street",Nashville,TN,37210
"688 Cottonwood Lane",Nashville,TN,37203
"2139 Franklin Avenue","Daytona Beach",FL,32114
"3475 Longview Avenue",Bronx,NY,10461
"2324 Limer Street","La Grange",GA,30240
"328 Whitetail Lane",Dallas,TX,75207
"3539 Rowes Lane","Bowling Green",KY,42101
"438 Northwest Boulevard",Newark,NJ,07102
"324 Franklin Avenue","Corpus Christi",TX,78401
"4182 Hershell Hollow Road",Everett,WA,98203
"400 Jehovah Drive",Roanoke,VA,24012
"4247 Saints Alley","Plant City",FL,33564
"4482 Young Road",Boise,ID,83702
"2934 Fraggle Drive",Naperville,IL,60540
"3003 Pooz Street","New Brunswick",NJ,08901
"445 Wiseman Street",Knoxville,TN,37902
"2362 Holt Street","Lake Worth",FL,33463
"4854 Kerry Way",Irvine,CA,92614
"4692 Candlelight Drive",Houston,TX,77053
"453 Marie Street","White Marsh",MD,21162
"45 Essex Court",Brattleboro,VT,05301
"2629 Little Street",Streetsboro,OH,44241
"2906 Rockford Road",Burlington,MA,01803
"4963 Augusta Park",Wheeling,WV,26003
"4616 Goff Avenue","Grand Rapids",MI,49503
"1303 Cardinal Lane",Quincy,IL,62301
"4694 Bolman Court",Champaign,IL,61820
"1783 Hardman Road",Rutland,VT,05701
"407 Vineyard Drive",Cleveland,OH,44114
"2725 Steve Hunt Road",Miami,FL,33169
"1300 Linden Avenue",Orlando,FL,32801
"1136 Langtown Road",Seattle,WA,98122
"3598 Duke Lane",Wayne,NJ,07477
"2900 Brown Street",Phoenix,AZ,85003
"2450 Locust Court","Seal Beach",CA,90740
"1450 Sherwood Circle",Lafayette,LA,70583
"2161 Kidd Avenue","Cape Pole",AK,99901
"2885 Columbia Boulevard",Baltimore,MD,21215
"3529 Twin Willow Lane",Jacksonville,NC,28540
"1063 Abia Martin Drive","New York",NY,10013
"3393 School House Road",Mccomb,MS,39648
"4049 Calvin Street",Easton,MD,21601
"4466 Callison Lane",Portland,DE,97205
"4056 Poplar Chase Lane",Emmett,ID,83617
"1695 Morningview Lane",Garner,IA,50438
"4806 Hinkle Lake Road",Boston,MA,02107
"2032 River Road","Colorado Springs",CO,80903
"1279 Masonic Drive",Carlyle,MT,59320
"2113 Turkey Pen Road","New York",NY,10016
"1765 Jennifer Lane",Morrisville,NC,27560
"3816 Romrog Way","Grand Island",NE,68801
"1711 Moore Avenue","Fort Worth",TX,76107
"1375 Benson Park Drive","Oklahoma City",OK,73160
"3150 Lunetta Street","Wichita Falls",TX,76301
"3390 Benedum Drive",Suffern,NY,10901
"2191 Lakeland Park Drive",Norcross,GA,30071
"3706 Rosebud Avenue",Leslie,AR,72645
"818 Heavner Court","West Bend",IA,50597
"293 Badger Pond Lane",Tampa,FL,33634
"4534 Augusta Park","New Martinsville",WV,26155
"4038 Hickory Lane",Washington,DC,20024
"4159 Dennison Street",Stockton,CA,95202
"66 Gateway Avenue",Palmdale,CA,93550
"860 Glendale Avenue",Glendale,CA,91204
"4544 Jerry Dove Drive",Florence,SC,29501
"507 Ridge Road",Bucklin,KS,67834
"156 Oral Lake Road",Minneapolis,MN,55401
"2374 Holly Street",Augusta,GA,30907
"1392 Seltice Way","Twin Falls",ID,83301
"3412 Frank Avenue",Amherst,MA,01002
"3230 Radio Park Drive",Augusta,GA,30909
"4032 Richards Avenue",Stockton,CA,95202
"1201 Grove Avenue","Oklahoma City",OK,73128
"170 Romano Street",Lexington,MA,02421
"3855 Kemper Lane","Salt Lake City",UT,84104
"3325 Jessie Street",Chillicothe,OH,45601
"2727 Anmoore Road",Brooklyn,NY,11238
"1541 Ben Street",Lansing,MI,48933
"145 Ralph Drive",Kingsville,OH,44048
"4280 Luke Lane",Duncan,OK,73533
"1405 Lake Road","Atlantic City",NJ,08401
"1181 Capitol Avenue",Richmond,IN,47374
"3384 Hanifan Lane",Panola,GA,30058
"3604 Elmwood Avenue",Mesa,AZ,85201
"1886 Lighthouse Drive","Stotts City",MO,65756
"4690 Burwell Heights Road",Nederland,TX,77627
"4647 Prudence Street",Detroit,MI,48209
"3599 Maryland Avenue","St Petersburg",FL,33701
"4307 White Oak Drive",Rushville,MO,64484
"4042 Thomas Street","Arlington Heights",IL,60004
"1266 Roguski Road",Natchitoches,LA,71457
"4494 Coulter Lane",Richmond,VA,23235
"2970 White Oak Drive",Independence,MO,64055
"3872 White River Way","Salt Lake City",UT,84106
"1786 Mulberry Avenue",Damascus,AR,72039
"1617 Cityview Drive",Georgetown,PA,19947
"136 Riverside Drive",Menlo,GA,30731
"2258 Centennial Farm Road",Inwood,IA,51240
"3395 Jacobs Street",Pittsburgh,PA,15212
"1281 Heavens Way",Sarasota,FL,34236
"3480 Quincy Street",Horsham,PA,19044
"4521 George Avenue",Mobile,AL,36608
"3509 Austin Secret Lane","Salt Lake City",UT,84104
"374 Rocket Drive",Minneapolis,MN,55406
"2994 Better Street","Kansas City",KS,66215
"2246 Roosevelt Wilson Lane","Diamond Bar",CA,91765
"346 Farland Avenue",Tarpley,TX,78883
"178 Clifford Street",Fremont,CA,94538
"4286 Glenview Drive","Corpus Christi",TX,78476
"3096 Tipple Road",Philadelphia,PA,19121
"1916 Newton Street",Sunburg,MN,56289
"2730 Cedar Street","Mountain View",AR,72560
"729 Havanna Street",Roxboro,NC,27573
"4387 John Calvin Drive","Hickory Hills",IL,60457
"3912 Washington Street","Corpus Christi",TX,78476
"3412 Plainfield Avenue",Syracuse,NY,13204
"1672 Lowndes Hill Park Road",Bakersfield,CA,93307
"3424 Sarah Drive","Lake Charles",LA,70629
"2093 Millbrook Road",Schaumburg,IL,60173
"2936 Hurry Street",Roanoke,VA,24011
"3995 Quincy Street",Philadelphia,PA,19103
"4443 Derek Drive",Warren,OH,44484
"3034 Hewes Avenue",Hanover,MD,21076
"971 Still Street",Toledo,OH,43604
"1229 Hall Place",Longview,TX,75601
"3620 Emily Renzelli Boulevard","San Jose",CA,95134
"2981 Alexander Drive",Aubrey,TX,76227
"4043 Hilltop Drive",Ralls,TX,79357
"2203 Trails End Road",Miami,FL,33179
"609 Horizon Circle",Tacoma,WA,98402
"314 Michigan Avenue",Bridgeville,PA,15017
"1550 Jarvis Street",Buffalo,NY,14202
"1820 Jenna Lane",Cincinnati,OH,45245
"446 Alpha Avenue",Kilgore,TX,75662
"1257 Burning Memory Lane",Philadelphia,PA,19108
"495 Trainer Avenue",Peoria,IL,61602
"3192 Melville Street",Jackson,TN,38301
"4231 Woodridge Lane",Memphis,TN,38110
"1655 Cedar Lane",Newton,MA,02160
"803 Pearlman Avenue",Concord,MA,01742
"3703 Colonial Drive",Houston,TX,77006
"609 Heather Sees Way",Muskogee,OK,74401
"2214 Frosty Lane",Binghamton,NY,13901
"1405 Dawson Drive","Little Rock",AR,72211
"1288 Grove Avenue",Enid,OK,73701
"4114 Coffman Alley",Elizabethtown,KY,42701
"4278 Cessna Drive","Fort Wayne",IN,46802
"4967 Upton Avenue",Hartland,ME,04943
"2858 Gateway Road",Portland,OR,97214
"2820 Raver Croft Drive",Chattanooga,TN,37403
"2980 Summit Park Avenue",Southfield,MI,48076
"3310 Pleasant Hill Road","Long Beach",CA,90802
"1915 Carson Street",Berea,KY,40403
"1980 Webster Street",Piscataway,NJ,08854
"1094 College Street",Decatur,GA,30030
"4175 Hickory Lane",Washington,DC,20017
"326 Selah Way",Brattleboro,VT,05301
"676 Garfield Road",Peoria,IL,61604
"1782 Kennedy Court",Westborough,MA,01581
"4323 College Street",Decatur,GA,30030
"515 Summit Park Avenue","Farmington Hills",MI,48331
"706 Paradise Lane","City Of Commerce",CA,90040
"1783 Griffin Street",Phoenix,AZ,85012
"439 Fulton Street",Blacksville,WV,26589
"1582 Buck Drive","Salt Lake City",UT,84104
"2123 August Lane",Shreveport,LA,71101
"4669 Saint Clair Street",Jackson,MS,39201
"224 Lang Avenue",Tooele,UT,84074
"4636 Star Route",Cicero,IL,60650
"2697 Tibbs Avenue",Alberton,MT,59820
"1802 Joes Road",Albany,NY,12207
"744 Romrog Way",Madrid,NE,69150
"1899 Oxford Court",Belzoni,MS,39038
"2829 Duffy Street",Gary,IN,46402
"362 Upton Avenue","Vinal Haven",ME,04863
"749 New Street","Coos Bay",OR,97420
"4191 Poplar Street",Schaumburg,IL,60173
"4136 South Street",Charlottesville,VA,22903
"1636 Midway Road","Van Buren",AR,72956
"1932 James Avenue",Wichita,KS,67202
"2150 Deer Ridge Drive",Piscataway,NJ,08854
"1238 Bailey Drive","Cedar Rapids",IA,52401
"3518 Holt Street","West Palm Beach",FL,33401
"79 Payne Street",Clinchport,VA,24244
"2348 Queens Lane",Schuyler,VA,22969
"4477 Pinewood Drive",Wheeling,IL,60090
"1748 Elk Rd Little",Albany,NY,12207
"3756 Settlers Lane",Bellerose,NY,11426
"895 Perry Street",Southfield,MI,48075
"120 Raccoon Run",Seattle,WA,98101
"30 Aaron Smith Drive",Harrisburg,PA,17101
"3170 Riverside Drive",Cornelia,GA,30531
"1393 Roguski Road",Marion,LA,71260
"3372 Washington Street","Corpus Christi",TX,78476
"2379 Weekley Street","San Antonio",TX,78217
"2975 Long Street",Gainesville,FL,32601
"3141 Clearview Drive",Louisville,CO,80027
"1442 Rose Street",Concord,CA,94520
"1225 Red Dog Road",Charlotte,NC,28204
"3543 Thomas Street","Wood Dale",IL,60191
"3124 Cook Hill Road",Wallingford,CT,06492
"4228 Park Boulevard",Haverhill,IA,50120
"4534 Corbin Branch Road",Kingsport,TN,37663
"4899 School House Road","Rose Hill",MS,39356
"4652 Woodbridge Lane",Westland,MI,48185
"1532 Arron Smith Drive",Honolulu,HI,96813
"723 Michael Street",Houston,TX,77033
"148 White Lane",Macon,GA,31206
"1968 Shady Pines Drive",Radcliff,KY,40160
"1068 Roane Avenue","Silver Spring",MD,20910
"2130 Mcwhorter Road",Jackson,MS,39201
"3685 Poe Lane","Kansas City",KS,66215
"2720 Twin Oaks Drive","Grand Rapids",MI,49503
"130 Chatham Way",Washington,MD,20200
"4306 Better Street","Kansas City",KS,66101
"4322 Kelly Drive",Clarksburg,WV,26301
"2674 Harley Brook Lane","State College",PA,16803
"1048 Bagwell Avenue",Ocala,FL,32671
"986 Burnside Avenue","Brigham City",UT,84302
"1170 Palmer Road",Worthington,OH,43085
"2283 Pike Street","San Diego",CA,92126
"4891 Haymond Rocks Road",Bend,OR,97701
"1056 Dogwood Road",Phoenix,AZ,85003
"1575 Quiet Valley Lane",Agoura,CA,91301
"1940 Walnut Street",Hattiesburg,MS,39401
"558 Hillcrest Avenue",Boston,MA,02110
"356 Monroe Street",Houston,TX,77074
"2003 Adamsville Road",Harlingen,TX,78550
"361 Golf Course Drive",Manassas,VA,22110
"438 Tipple Road",Philadelphia,PA,19125
"2901 Burke Street",Lynnfield,MA,01940
"2462 Tennessee Avenue",Pontiac,MI,48342
"2678 Eagle Drive",Pontiac,MI,48342
"4796 Science Center Drive",Eagle,ID,83642
"3501 Hardman Road",Lyme,VT,03768
"3685 Buckhannan Avenue",Syracuse,NY,13221
"2519 Lena Lane",Jackson,MS,39201
"2224 Florence Street",Marshall,TX,75670
"2201 Morgan Street","Port St Joe",FL,32456
"3735 Apple Lane",Davenport,IL,52807
"519 Church Street",Brooklyn,NY,11209
"4530 Abner Road","Green Bay",WI,54303
"3454 Bobcat Drive","Lexington Park",MD,20653
"2234 Jim Rosa Lane","San Francisco",CA,94108
"325 Loving Acres Road","Fort Worth",TX,76102
"160 Gandy Street",Harrisburg,NY,17102
"2350 Agriculture Lane",Bluefield,WV,24701
"2237 Stonecoal Road",Mansfield,OH,44905
"777 Weekley Street","San Antonio",TX,78205
"3025 Concord Street",Charlotte,NC,28213
"2953 Lucy Lane",Evansville,IN,47714
"4289 Browning Lane",Guilford,NY,13780
"4322 Arrowood Drive",Jacksonville,FL,32258
"611 Roy Alley",Centennial,CO,80111
"3685 Jail Drive",Annawan,IL,61234
"4147 Berkley Street",Philadelphia,PA,19108
"2234 State Street","Saint Louis",MO,63102
"4679 Boggess Street",Denton,TX,76201
"4140 Ashmor Drive",Wadena,MN,56482
"889 Wines Lane",Houston,TX,77028
"1445 Scenic Way",Bement,IL,61813
"4273 Cook Hill Road","New Haven",CT,06510
"2410 Hart Ridge Road","Bay City",MI,48706
"2998 Woodland Terrace",Sacramento,CA,95814
"1821 Bottom Lane",Buffalo,NY,14220
"2317 Loving Acres Road",Dallas,TX,75204
"706 Walnut Avenue",Hackensack,NJ,07601
"1842 Pyramid Valley Road","Iowa City",IA,52240
"4040 Harter Street",Dayton,OH,45402
"14 Browning Lane",Otego,NY,13825
"1969 Snowbird Lane",Omaha,NE,68114
"1620 Doe Meadow Drive",Washington,MD,20004
"3956 Meadow View Drive",Wallingford,CT,06492
"2994 Atha Drive",Wasco,CA,93280
"1250 Florence Street",Dallas,TX,75202
"1101 Bird Street",Clovis,NM,88101
"2902 Angie Drive",Appleton,WI,54914
"3471 Oakdale Avenue","Winter Haven",FL,33830
"1893 Lords Way",Memphis,TN,38141
"4501 Godfrey Street",Salem,OR,97301
"3442 Giraffe Hill Drive",Dallas,TX,75207
"1403 Wetzel Lane",Trufant,MI,49347
"1873 Fort Street",Engelhard,NC,27824
"4255 Tree Frog Lane","Kansas City",MO,64106
"2252 Trouser Leg Road",Springfield,MA,01103
"3969 Maple Court",Rolla,MO,65401
"2429 Center Street",Fresno,CA,93721
"2813 Mulberry Street",Conroe,TX,77301
"2007 Grim Avenue","San Diego",CA,92101
"4605 Hummingbird Way",Cambridge,MA,02141
"4495 Chatham Way",Herndon,MD,22070
"4094 Oak Ridge Drive",Grandin,MO,63943
"1212 Davis Street",Rome,GA,30161
"1455 Kyle Street","Grand Island",NE,68801
"146 Railroad Street",Marquette,MI,49855
"1025 Musgrave Street","Oklahoma City",OK,73102
"3022 Pallet Street","White Plains",NY,10601
"2739 Private Lane",Tifton,GA,31794
"3389 Golf Course Drive",Washington,VA,20011
"2853 Upland Avenue",Greenwich,OH,44837
"1769 Vine Street",Elgin,IL,60120
"1355 Camden Place",Awendaw,SC,29429
"2707 Bernardo Street","Clay City",IN,47841
"3844 Spruce Drive","Beaver Falls",PA,15010
"4858 Broadcast Drive",Charlotte,NC,28209
"2272 Karen Lane",Portland,OR,97225
"4984 Summit Street",Davenport,IA,52807
"4390 Hillview Street",Columbia,SC,29210
"2944 James Martin Circle",Columbus,OH,43215
"2893 Garrett Street","Grand Rapids",MI,49503
"1006 Pearcy Avenue","South Bend",IN,46625
"149 Lynch Street",Neenah,WI,54956
"1066 Paul Wayne Haggerty Road",Kenner,LA,70065
"719 Raintree Boulevard",Minneapolis,MN,55415
"2837 Twin Oaks Drive","Grand Rapids",MI,49503
"1794 Williams Lane","Garden Plain",KS,67050
"579 Indiana Avenue","Barbers Point",HI,96862
"2243 Counts Lane",Versailles,KY,40383
"801 Despard Street","East Point",GA,30344
"2846 Fieldcrest Road","Long Island City",NY,11101
"3888 Meadowcrest Lane",Warfield,KY,41267
"1845 Smithfield Avenue",Lubbock,TX,79401
"4700 Washburn Street","Baton Rouge",LA,70805
"4173 Prospect Valley Road",Hawthorne,CA,90250
"1016 Carter Street",Stlouis,IL,63101
"4592 Barrington Court","Mountain View",AR,72560
"3013 Johnson Street","Rocky Mount",NC,27801
"983 Hott Street","Oklahoma City",OK,73109
"3770 Benson Street",Marshfield,WI,54449
"343 Parkway Drive",Tucson,AZ,85714
"216 Clousson Road",Houston,TX,77063
"3146 Pallet Street","White Plains",NY,10606
"4275 Neuport Lane",Alpharetta,GA,30201
"3073 Bottom Lane",Lancaster,NY,14086
"3641 Stiles Street",Pittsburgh,PA,15203
"3326 Findley Avenue",Pembina,ND,58271
"2958 Spruce Drive",Pittsburgh,PA,15219
"3105 Leverton Cove Road",Springfield,MA,01103
"2971 Ford Street","San Francisco",CA,94108
"4193 Coolidge Street",Gardiner,MT,59030
"2811 Wood Street",Saginaw,MI,48607
"2338 Charla Lane",Allen,TX,75002
"966 Mount Olive Road",Atlanta,GA,30328
"4224 Maxwell Street",Enfield,CT,06082
"1829 Ethels Lane","Avon Park",FL,33825
"1793 Walton Street","Salt Lake City",UT,84104
"439 Irving Road","Saint Clairsville",OH,43950
"1556 Eagles Nest Drive",Sacramento,CA,95814
"1613 Watson Street","Cape May Court House",NJ,08210
"3434 Valley View Drive",Boston,MA,02114
"3853 Stone Lane",Springfield,PA,19064
"434 Jarvisville Road","Port Washington",NY,11050
"1889 Freed Drive","San Andreas",CA,95249
"934 Oliver Street",Plano,TX,75074
"907 Wayside Lane",Oakland,CA,94606
"4328 Khale Street",Florence,SC,29501
"4853 Keyser Ridge Road",Greensboro,NC,27406
"1942 Leo Street",Denver,CO,80202
"4811 Wetzel Lane","Grand Rapids",MI,49508
"323 Blair Court","Kansas City",MO,64106
"820 Parkview Drive","Buena Park",CA,90621
"655 Austin Secret Lane","Castle Dale",UT,84513
"3813 Pride Avenue",Corona,NY,11368
"167 Cityview Drive","King Of Prussia",PA,19406
"2374 Green Gate Lane",Hanover,MD,21076
"4251 Pennsylvania Avenue",Piscataway,NJ,08854
"4783 Redbud Drive",Whitestone,NY,11357
"3402 Zappia Drive",Kirksville,KY,40443
"1347 Sunset Drive","Pine Bluff",AR,71602
"1534 Radford Street",Louisville,KY,40244
"1082 Richards Avenue",Stockton,CA,95204
"3958 Lamberts Branch Road","Fort Lauderdale",FL,33301
"2357 Jerome Avenue",Harlingen,TX,78550
"4676 Goldcliff Circle",Washington,DC,20011
"4474 Hott Street","Oklahoma City",OK,73102
"540 Rockford Mountain Lane","Green Bay",WI,54303
"1887 Lightning Point Drive",Arlington,TN,38002
"108 Agriculture Lane",Elkview,WV,25071
"3785 Godfrey Street",Hillsboro,OR,97123
"1317 Patterson Fork Road",Chicago,IL,60610
"4368 Quilly Lane",Columbus,OH,43215
"2568 Church Street","New York",NY,10013
"2125 Oakway Lane",Riverside,CA,92507
"1843 McKinley Avenue",Englewood,CO,80112
"4160 Brentwood Drive",Austin,TX,78756
"755 Hall Place",Longview,TX,75604
"1051 Alpaca Way","Los Angeles",CA,90017
"1428 West Fork Drive","Fort Lauderdale",FL,33308
"854 Straford Park",Somerset,KY,42501
"801 Tree Frog Lane","Kansas City",MO,64106
"4229 Flinderation Road",Chicago,IL,60605
"1391 Rebecca Street",Wheeling,IL,60090
"3073 Rogers Street","South Lebanon",OH,45065
"460 Shobe Lane",Mancos,CO,81328
"252 Rinehart Road",Miami,FL,33169
"3324 Romano Street",Boston,MA,02110
"1012 Jefferson Street",Norfolk,VA,23518
"1474 Grant View Drive",Milwaukee,WI,53204
"4271 Hardesty Street",Albany,NY,12207
"4954 Haven Lane","Grand Rapids",MI,49508
"4936 Hidden Pond Road",Nashville,TN,37209
"361 Farm Meadow Drive",Monterey,TN,38574
"680 Oakwood Avenue","New York",NY,10007
"2644 Poling Farm Road",Plattsmouth,NE,68048
"870 Whispering Pines Circle",Dallas,TX,75225
"4298 Rivendell Drive",Minerva,OH,44657
"2736 Delaware Avenue","San Francisco",CA,94107
"4924 Still Street",Defiance,OH,43512
"1499 Kildeer Drive",Norfolk,VA,23502
"3193 Sunrise Road","Las Vegas",NV,89119
"350 Tea Berry Lane",Hudson,WI,54016
"3037 Rainbow Drive",Wooster,OH,44691
"2885 Lady Bug Drive",Brooklyn,NY,11201
"2573 Carolina Avenue","Grand Junction",CO,81501
"975 Straford Park",Winchester,KY,40391
"973 Callison Lane",Newark,DE,19711
"3438 Clarence Court",Ontario,CA,91761
"3930 Walton Street","Salt Lake City",UT,84111
"1819 Smith Road",Mcdonough,GA,30253
"3346 Cityview Drive","Fort Washington",PA,19034
"1476 Kooter Lane",Shelby,NC,28150
"4435 Nuzum Court",Buffalo,NY,14202
"1502 Kessla Way","Myrtle Beach",SC,29577
"3522 Reel Avenue",Hobbs,NM,88240
"196 White Oak Drive","Kansas City",MO,64108
"1705 Stanley Avenue",Hempstead,NY,11550
"3150 Post Farm Road",Atlanta,GA,30303
"3286 Pointe Lane","Pompano Beach",FL,33060
"3658 Leo Street",Pittsburgh,PA,15203
"3179 Moonlight Drive",Camden,NJ,08102
"1522 Bagwell Avenue",Ocala,FL,34471
"213 Simpson Avenue",Schaefferstown,PA,17067
"4424 Holden Street","San Diego",CA,92107
"4100 Elliott Street",Dover,NH,03820
"4132 Gregory Lane",Frankfort,KY,40601
"3165 Hampton Meadows",Boston,MA,02110
"4345 Tecumsah Lane",Farmerville,LA,71241
"2585 Cooks Mine Road",Clovis,NM,88101
"1405 Dark Hollow Road",Madison,WI,53703
"1118 Mutton Town Road",Redmond,WA,98052
"4885 Archwood Avenue","Mountain View",WY,82939
"202 Clarksburg Park Road",Yuma,AZ,85364
"1353 Wright Court",Tukwila,WA,98168
"4914 James Avenue",Wichita,KS,67202
"3743 Carolina Avenue",Westminster,CO,80030
"4817 Patterson Street",Houston,TX,77006
"4523 Neville Street","Terre Haute",IN,47885
"3020 Romines Mill Road",Dallas,TX,75202
"4110 Huntz Lane","North Billerica",MA,01862
"4356 Breezewood Court",Girard,KS,66743
"4251 Briarhill Lane",Warren,OH,44481
"4471 Chapmans Lane","Santa Rosa",NM,88435
"3063 Heritage Road",Fresno,CA,93711
"1464 Rosemont Avenue",Orlando,FL,32810
"2429 Terra Cotta Street",Menahga,MN,56464
"3172 August Lane",Jonesboro,LA,71251
"4591 Marie Street",Galesville,MD,20765
"868 Sumner Street","Rancho Dominguez",CA,90220
"1930 Elk Rd Little",Tucson,AZ,85712
"4032 Beechwood Avenue",Linden,NJ,07036
"2965 Lowland Drive","Hickory Hills",IL,60457
"947 Lilac Lane",Ludowici,GA,31316
"2685 Hornor Avenue",Tulsa,OK,74146
"2284 Rainy Day Drive",Charlestown,MA,02129
"2389 Sardis Station",Minneapolis,MN,55414
"1322 Taylor Street","New York",NY,10011
"4851 Owen Lane",Whitehall,MI,49461
"4980 West Fork Street",Glendive,MT,59330
"2772 Charles Street",Livonia,MI,48150
"2245 Cherry Tree Drive",Jacksonville,FL,32202
"1179 College Avenue",Bellefontaine,OH,43310
"877 Passaic Street",Washington,DC,20007
"582 Cottrill Lane","Saint Louis",MO,63109
"2425 Tecumsah Lane",Shreveport,LA,71101
"4426 University Drive",Chicago,IL,60654
"1489 Doctors Drive","Los Angeles",CA,90025
"4497 Hillside Street",Phoenix,AZ,85003
"2992 Kemper Lane","West Valley City",UT,84119
"2201 Gladwell Street",Longview,TX,75601
"184 Woodridge Lane",Memphis,TN,38134
"4187 Stuart Street",Pittsburgh,PA,15222
"4795 Beechwood Drive",Hanover,MD,21076
"3918 Cooks Mine Road","Pine Hill",NM,87321
"210 Westwood Avenue",Huntington,NY,11743
"4958 Richison Drive",Joplin,MT,59531
"4860 Plainfield Avenue",Waterloo,NY,13165
"1309 Selah Way","South Burlington",VT,05403
"2303 Woodland Terrace","North Sacramento",CA,95815
"2767 Godfrey Street",Clackamas,OR,97015
"896 Stanton Hollow Road",Worcester,MA,01610
"4390 Clark Street","Garden City",NY,11530
"2802 Juniper Drive",Southfield,MI,48075
"577 Hartway Street",Chamberlain,SD,57326
"1607 Patterson Street","Sugar Land",TX,77478
"431 Norma Lane",Shreveport,LA,71101
"2617 Charter Street","Kansas City",KS,64106
"3456 Wescam Court",Lexington,MA,02421
"1652 Harper Street","Bowling Green",KY,42101
"4002 Cedar Street","Little Rock",AR,72212
"2249 Ruckman Road","Oklahoma City",OK,73113
"3083 Hickory Heights Drive",Columbia,MD,21045
"3940 Boundary Street",Jacksonville,FL,32216
"1255 Mill Street",Greenville,SC,29607
"4553 Stratford Park","Terre Haute",IN,47805
"812 Parker Drive",Cleveland,OH,44102
"1303 Romines Mill Road",Dallas,TX,75247
"1771 Callison Lane",Philadelphia,DE,19108
"1156 Isaacs Creek Road",Champaign,IL,61820
"4526 North Street","Salt Lake City",UT,84104
"2640 Clay Street",Indianapolis,IN,46204
"3447 Valley Lane",Austin,TX,78701
"2082 Rockford Mountain Lane","Green Bay",WI,54303
"1936 Limer Street",Eatonton,GA,31024
"3264 Rose Avenue",Chalmette,LA,70043
"1416 Bell Street","New York",NY,10036
"3348 Maloy Court",Plainville,KS,67663
"3103 Willow Oaks Lane",Lafayette,LA,70501
"3120 Strother Street",Birmingham,AL,35222
"2106 Bolman Court",Springfield,IL,62701
"581 Pinewood Drive","Burr Ridge",IL,61257
"2537 Corbin Branch Road",Kingsport,TN,37663
"3926 Concord Street",Charlotte,NC,28209
"1024 Coulter Lane",Richmond,VA,23220
"4910 Joes Road",Albany,NY,12207
"1392 Ridenour Street",Miami,FL,33176
"3188 Martha Street",Cottonwood,AZ,86326
"2826 Private Lane","Buena Vista",GA,31803
"3534 Green Avenue",Oakland,CA,94609
"3824 Meadowcrest Lane",Greenup,KY,41144
"4730 Lunetta Street",Seymour,TX,76380
"1020 Alfred Drive",Jamaica,NY,11432
"2868 Gateway Road",Portland,OR,97212
"2286 Fowler Avenue",Marietta,GA,30064
"2603 Johnson Street",Garner,NC,27529
"2419 Stratford Drive",Honolulu,HI,96813
"4592 Wakefield Street",Morrisville,PA,19067
"4002 Jefferson Street",Onancock,VA,23417
"4572 Hillcrest Lane",Irvine,CA,92664
"4828 Dogwood Road",Phoenix,AZ,85012
"2197 Fittro Street",Fox,AR,72051
"3929 Adamsville Road",Harlingen,TX,78550
"705 Smithfield Avenue",Elkins,TX,79088
"52 Jacobs Street",Pittsburgh,PA,15212
"2555 Bird Spring Lane",Houston,TX,77053
"656 Grove Avenue",Altus,OK,73521
"3872 Chipmunk Lane",Turner,ME,04282
"952 Providence Lane",Irvine,CA,92614
"4789 Saints Alley","Polk City",FL,33868
"1464 Glenwood Avenue",Cleveland,OH,44110
"3966 Sharon Lane",Plymouth,IN,46563
"3403 West Side Avenue",Montclair,NJ,07042
"697 Roane Avenue",Pearland,TX,77581
"246 Boundary Street",Jacksonville,FL,32216
"4421 Fowler Avenue",Atlanta,GA,30303
"2474 Saint Clair Street",Greenwood,MS,38930
"3689 Heavens Way",Sarasota,FL,34236
"468 Veltri Drive",Anchorage,AK,99501
"4771 Poplar Lane",Miami,FL,33131
"4912 Newton Street",Minneapolis,MN,55401
"1048 Hinkle Lake Road",Newton,MA,02160
"2949 Beechwood Drive","Severna Park",MD,21146
"1426 Oak Way","Steele City",NE,68440
"3554 Whitetail Lane",Dallas,TX,75225
"2802 Irving Place",Washington,MO,63090
"2926 Tuna Street",Southfield,MI,48075
"4500 Wayside Lane","Walnut Creek",CA,94597
"2033 Lauren Drive",Holmen,WI,54636
"2754 Jarvisville Road","New York",NY,10011
"289 Kenwood Place","Fort Lauderdale",FL,33304
"2787 Berkshire Circle",Knoxville,TN,37917
"4747 Ashcraft Court","San Diego",CA,92103
"4409 Aspen Court",Boston,MA,02114
"3945 Green Gate Lane",Odenton,MD,21113
"3479 Turkey Pen Lane",Montgomery,AL,36104
"491 Hickory Street","Salt Lake City",UT,84116
"3321 Gambler Lane",Houston,TX,77002
"1583 Hart Ridge Road",Saginaw,MI,48607
"1626 Melrose Street",Millwood,WA,99212
"1288 Kenwood Place","Ft Lauderdale",FL,33311
"2331 Joanne Lane",Quincy,MA,02169
"4875 Ward Road","El Paso",TX,79936
"733 Hartway Street","Hot Springs",SD,57747
"636 Musgrave Street","Oklahoma City",OK,73102
"2050 Milford Street",Manchester,NH,03101
"1117 Elm Drive","Garden City",NY,11530
"4068 Cedarstone Drive",Tiffin,OH,44883
"2655 Saint James Drive",Lancaster,PA,17670
"4300 Olive Street",Arlington,OH,45814
"4796 Beeghley Street",Marlin,TX,76661
"2086 Archwood Avenue",Cheyenne,WY,82001
"2387 Hanifan Lane",Atlanta,GA,30303
"3249 Feathers Hooves Drive",Southampton,NY,11968
"1807 Oakridge Lane",Augusta,GA,30901
"1173 Irving Road",Columbus,OH,43201
"1443 Rockford Road",Reno,NV,89501
"3915 Oakridge Farm Lane","Menomonee Falls",WI,53051
"1401 Rainbow Drive",Columbiana,OH,44408
"2643 Cedar Street",Newark,AR,72562
"2782 Ross Street",Belleville,IL,62220
"2429 Locust Court","Santa Fe Springs",CA,90670
"1531 Kinney Street",Amherst,MA,01002
"764 Cambridge Place",Brooklyn,MD,21225
"2370 Archwood Avenue",Clearmont,WY,82835
"1530 Burton Avenue",Memphis,TN,38117
"471 Eagle Drive",Pontiac,MI,48342
"4986 Horner Street",Boardman,OH,44512
"2419 Monroe Street",Houston,TX,77002
"213 Badger Pond Lane",Tampa,FL,33610
"1504 Waldeck Street",Wedgwood,TX,76133
"2050 Tea Berry Lane",Barron,WI,54812
"1 Benedum Drive",Poughkeepsie,NY,12601
"4774 Eastland Avenue",Jackson,MS,39201
"3635 Nixon Avenue",Knoxville,TN,37921
"4983 Valley Drive",Warminster,PA,18974
"2229 Whitetail Lane",Dallas,TX,75240
"4868 Center Street","White City",OR,97503
"4919 North Avenue",Omaha,NE,68104
"1853 Carriage Lane","Fort Jennings",OH,45844
"3999 Tanglewood Road",Greenville,MS,38701
"2727 Whiteman Street",Pemberton,NJ,08068
"601 Geneva Street","New York",NY,10016
"4462 Brown Street",Concord,CA,94520
"1070 Formula Lane",Dallas,TX,75240
"1329 Lynch Street",Milwaukee,WI,53202
"2734 Bingamon Branch Road","Oak Brook",IL,60523
"3667 Bartlett Avenue",Troy,MI,48083
"1334 Pretty View Lane",Forestville,CA,95436
"3119 Pick Street",Loveland,CO,80537
"1042 Big Indian","New Orleans",LA,70112
"4035 Custer Street",Clarion,PA,16214
"2719 Emily Renzelli Boulevard",Salinas,CA,93901
"1194 Quiet Valley Lane","Sherman Oaks",CA,91403
"1548 Oakridge Farm Lane",Sturtevant,WI,53177
"4448 Essex Court","South Burlington",VT,05403
"3764 Essex Court","South Burlington",VT,05403
"2009 Poplar Street","Hickory Hills",IL,60457
"2917 Hickman Street","Arlington Heights",IL,60005
"3470 Simpson Avenue","Mount Gretna",PA,17064
"3690 Berry Street",Kim,CO,81049
"1940 Kessla Way",Lakewood,SC,29577
"4349 Cedarstone Drive",Fayette,OH,43521
"973 Hummingbird Way",Needham,MA,02192
"4847 Oliverio Drive",Canton,KS,67428
"1884 Geneva Street","Garden City",NY,11530
"2880 Copperhead Road",Farmington,CT,06032
"4000 Hickory Street",Kearns,UT,84118
"1575 Lyndon Street",Philadelphia,PA,19103
"691 Rocket Drive",Minneapolis,MN,55406
"1124 Adamsville Road",Dallas,TX,75252
"1733 Carson Street",Lexington,KY,40511
"4939 Glory Road",Lawrenceburg,TN,38464
"3070 Heliport Loop",Dubois,IN,47527
"2917 Renwick Drive",Philadelphia,PA,19103
"1189 Archwood Avenue",Laramie,WY,82070
"2372 Brighton Circle Road","Saint Cloud",MN,56303
"2222 Austin Avenue",Brunswick,GA,31520
"4615 Scheuvront Drive",Denver,CO,80211
"3906 Morningview Lane","New York",NY,10004
"832 Heavner Court",Levittown,NY,11756
"1887 American Drive",Tallahassee,FL,32301
"2254 Arrowood Drive",Jacksonville,FL,32216
"1847 Norman Street","Los Angeles",CA,90063
"4672 Park Street","San Francisco",CA,94107
"3861 Comfort Court",Madison,WI,53703
"3338 My Drive",Huntington,NY,11743
"4287 Newton Street","Saint Cloud",MN,56303
"339 Washington Avenue",Jackson,MS,39213
"4865 Cedar Street","Little Rock",AR,72201
"1933 Clousson Road","Sergeant Bluff",IA,51054
"2816 Midway Road","Fort Smith",AR,72901
"827 Davis Avenue",Oakland,CA,94612
"856 Lauren Drive",Madison,WI,53718
"805 Carriage Lane",Clifford,PA,18413
"1324 O Conner Street",Moultrie,GA,31768
"4591 Charles Street","Farmington Hills",MI,48335
"168 Peck Street","New Durham",NH,03855
"4547 Marie Street",Hanover,MD,21076
"147 Hiney Road",Nelson,NV,89046
"897 Vesta Drive","Hickory Hills",IL,60457
"4118 Capitol Avenue","West Point",IN,47992
"2351 Rainbow Drive",Canfield,OH,44406
"3906 Brooke Street",Houston,TX,77002
"3645 Cost Avenue",Frederick,MD,21701
"2770 Round Table Drive",Hamilton,OH,45011
"1890 Del Dew Drive",Waldorf,MD,20601
"2352 Rollins Road",Wellfleet,NE,69170
"3013 Kovar Road",Hopkinton,MA,01748
"3830 Wildwood Street",Youngstown,OH,44503
"826 Paradise Lane","Mira Loma",CA,91752
"3606 Tipple Road",Bensalem,PA,19020
"434 Upland Avenue",Sherwood,OH,43556
"1295 Hart Country Lane",Columbus,GA,31901
"4218 Jadewood Farms",Dover,NJ,07801
"3143 Corpening Drive",Farmington,MI,48336
"2224 West Side Avenue","New Brunswick",NJ,08901
"533 Rocky Road","Willow Grove",PA,19090
"491 Hall Valley Drive",Wheeling,WV,26003
"4058 Nutters Barn Lane","West Des Moines",IA,50266
"3874 Glen Street",Paducah,KY,42003
"688 Waterview Lane","Sante Fe",NM,87501
"3274 Denver Avenue",Anaheim,CA,92801
"265 Scenicview Drive",Midland,TX,79701
"4631 Plainfield Avenue",Utica,NY,13502
"4889 West Fork Street","North Havre",MT,59501
"4182 Tenmile Road",Winchester,MA,01890
"3127 Deercove Drive",Kaufman,TX,75142
"2352 Locust View Drive","San Francisco",CA,94143
"4951 Emma Street",Dumas,TX,79029
"1587 Burke Street",Needham,MA,02192
"1981 Fairway Drive","Santa Rosa",CA,95401
"4524 Stratford Drive",Waipahu,HI,96797
"805 Radford Street",Louisville,KY,40202
"3846 Charack Road",Seymour,IN,47274
"1633 Willis Avenue","Daytona Beach",FL,32114
"1499 Hood Avenue","San Diego",CA,92128
"506 Mesa Drive","North Las Vegas",NV,89032
"1658 Brannon Avenue",Jacksonville,FL,32256
"3529 Half and Half Drive",Coalinga,CA,93210
"4993 Walnut Hill Drive",Cincinnati,OH,45230
"4880 Rosewood Court","Good Thunder",MN,56037
"2987 Heavner Court","Des Moines",IA,50315
"1394 Gateway Avenue","Sherman Oaks",CA,91403
"4285 Hardman Road",Burlington,VT,05401
"1341 Lake Floyd Circle","Silver Spring",MD,20904
"2399 Railroad Street",Wakefield,MI,49968
"1889 Ethels Lane","Polk City",FL,33868
"2521 Poe Road",Scranton,SC,29591
"4945 Waldeck Street",Dallas,TX,75212
"206 George Avenue",Mobile,AL,36602
"753 Randolph Street",Auburn,MA,01501
"2718 Gordon Street",Pomona,CA,91766
"998 Conaway Street",Columbus,IN,47201
"3678 Byers Lane","Citrus Heights",CA,95610
"3337 Duffy Street",Hammond,IN,46320
"4480 Lords Way",Jackson,TN,38301
"3654 Hartway Street",Castlewood,SD,57223
"1320 Earnhardt Drive",Louisville,KY,40205
"4635 Poplar Chase Lane",Emmett,ID,83617
"930 Sycamore Road",Bend,OR,97702
"3009 Henery Street",Indianapolis,IN,46225
"1660 Water Street",Concord,CA,94520
"292 Sand Fork Road",Plymouth,IN,46563
"1559 Badger Pond Lane","Polk City",FL,33868
"4937 Half and Half Drive",Fresno,CA,93721
"204 Pin Oak Drive",Artesia,CA,90701
"745 Station Street",Bastrop,TX,78701
"1267 Spinnaker Lane",Dekalb,IL,60115
"1063 Burnside Avenue","West Valley City",UT,84120
"2338 Sumner Street","Los Angeles",CA,90017
"260 Quiet Valley Lane","Sherman Oaks",CA,91403
"2811 Better Street",Atchison,KS,66002
"3394 Pennsylvania Avenue","New Brunswick",NJ,08901
"4102 Hanover Street","New York",NY,10021
"3695 Hope Street",Portland,OR,97209
"1584 Bel Meadow Drive","Los Angeles",CA,90017
"1411 High Meadow Lane",Shenandoah,PA,17976
"2699 Snowbird Lane",Seward,NE,68434
"1546 McVaney Road",Catawba,NC,28609
"3417 West Side Avenue","River Edge",NJ,07649
"1391 Wayback Lane","New York",NY,10001
"238 Wiseman Street",Knoxville,TN,37917
"171 Junior Avenue",Norcross,GA,30071
"1372 Cityview Drive","Kennett Square",PA,19348
"924 Aviation Way","Los Angeles",CA,90071
"1728 Hamilton Drive","Perry Hall",MD,21128
"3452 Harrison Street","San Rafael",CA,94903
"162 Adams Drive",Bryan,TX,77803
"2181 Brownton Road",Guntown,MS,38849
"4712 Ash Avenue","Saint Louis",MO,63108
"690 Oak Drive",Albany,NY,12207
"17 Zimmerman Lane","Los Angeles",CA,90026
"4147 Hidden Valley Road",Harrisburg,PA,17116
"614 Penn Street",Columbia,MO,65203
"3093 Twin Oaks Drive","Grand Rapids",MI,49503
"1037 Colonial Drive","College Station",TX,77840
"1046 Better Street","Overland Park",KS,66210
"3407 Passaic Street","Jersey City",NJ,07304
"3703 Ashcraft Court","El Cajon",CA,92020
"583 Richison Drive",Rosebud,MT,59347
"2324 Kelly Street",Charlotte,NC,28208
"241 Linden Avenue",Orlando,FL,32789
"3562 Myra Street",Providence,RI,02903
"1714 Benson Park Drive","Oklahoma City",OK,73160
"867 Derek Drive",Akron,OH,44308
"294 Elk Rd Little",Phoenix,AZ,85034
"1219 Losh Lane",Pittsburgh,PA,15236
"1060 Pine Tree Lane",Washington,MD,20036
"2623 Feathers Hooves Drive",Manhattan,NY,10107
"1611 Ferrell Street",Wadena,MN,56482
"4708 Stanley Avenue","Floral Park",NY,11001
"2013 Steele Street",Wheaton,IL,60187
"3120 Holden Street","San Diego",CA,92101
"3330 Pretty View Lane",Elk,CA,95432
"701 Bedford Street",Stamford,CT,06901
"4706 Golden Street",Miami,FL,33142
"3732 Hannah Street",Morganton,NC,28655
"1654 Hornor Avenue",Tulsa,OK,74145
"1055 Farland Avenue","San Antonio",TX,78258
"3031 Bubby Drive",Austin,TX,78749
"364 Dane Street","The Dalles",WA,97058
"4934 Southern Street",Syosset,NY,11791
"4186 Evergreen Lane",Pomona,CA,91766
"3466 Ashford Drive",Alexandria,VA,22304
"3891 Wright Court",Birmingham,AL,35244
"3149 Andy Street",Sturgis,SD,57785
"2317 McKinley Avenue",Englewood,CO,80110
"1228 Columbia Boulevard",Laurel,MD,20707
"1846 Wildrose Lane",Detroit,MI,48226
"2805 Arbor Court",Douglas,WY,82633
"4183 Pallet Street","Long Island City",NY,11101
"2793 Turkey Pen Road","New York",NY,10013
"1523 Jett Lane","Los Angeles",CA,90017
"1783 Clover Drive","Colorado Springs",CO,80918
"983 Cook Hill Road",Bridgeport,CT,06604
"2259 Carolyns Circle",Dallas,TX,75204
"24 Boone Crockett Lane",Darrington,WA,98241
"2995 Holden Street","San Diego",CA,92102
"1809 Beechwood Drive",Pittsburgh,PA,15212
"4409 Woodbridge Lane",Detroit,MI,48219
"1294 Joanne Lane",Worcester,MA,01610
"1233 Losh Lane",Mckeesport,PA,15132
"2761 North Bend River Road",Fedscreek,KY,41524
"2390 Adonais Way",Atlanta,GA,30310
"763 Rocket Drive",Minneapolis,MN,55417
"925 Mandan Road",Manchester,MO,63011
"4599 Stockert Hollow Road",Bothell,WA,98011
"977 Asylum Avenue",Derby,CT,06418
"539 Better Street",Mission,KS,66202
"3560 Circle Drive",Houston,TX,77002
"3428 Farland Street",Chicago,IL,60607
"1295 Shingleton Road","Grand Rapids",MI,49503
"3067 Edsel Road",Burbank,CA,91504
"646 Washington Street","Corpus Christi",TX,78476
"696 Church Street",Whitestone,NY,11357
"4158 Green Acres Road","Rocky Mount",NC,27801
"1330 Wolf Pen Road",Oakland,CA,94612
"3983 Whitman Court",Wallingford,CT,06492
"278 George Avenue",Mobile,AL,36693
"1803 Godfrey Road","New York",NY,10011
"666 Bedford Street","West Haven",CT,06516
"1961 Ventura Drive",Salinas,CA,93901
"3741 West Street","Grand Rapids",MI,49503
"950 Still Pastures Drive",Columbia,SC,29201
"1956 Musgrave Street","Pauls Valley",OK,73075
"4167 Cedarstone Drive",Maumee,OH,43537
"4228 Irving Place",Fenton,MO,63026
"310 Garfield Road",Bloomington,IL,61704
"3485 Heather Sees Way",Tulsa,OK,74105
"175 Poco Mas Drive",Dallas,TX,75247
"2760 Abner Road","Eau Claire",WI,54701
"2641 Rivendell Drive",Akron,OH,44312
"2410 John Daniel Drive","Saint Louis",MO,63108
"2709 Edgewood Avenue",Fresno,CA,93721
"3477 Petunia Way",Birmingham,AL,35209
"3062 Corbin Branch Road",Knoxville,TN,37917
"4940 Twin Willow Lane",Wilmington,NC,28403
"3073 Pineview Drive",Rochester,MN,55904
"42 Hillview Drive",Columbus,GA,31901
"924 Rollins Road",Loomis,NE,68958
"1236 Ethels Lane",Wauchula,FL,33873
"1393 Grand Avenue",Orlando,FL,32805
"2959 Joy Lane",Burbank,CA,91502
"3078 Colony Street",Fairfield,CT,06430
"164 Stratford Court",Cary,NC,27513
"2409 Grey Fox Farm Road",Tomball,TX,77337
"2249 Northwest Boulevard",Kearny,NJ,07032
"3552 Oxford Court",Carrollton,MS,38917
"3142 Olive Street",Toledo,OH,43609
"2448 Heavner Court",Hicksville,NY,11612
"2318 Stuart Street",Pittsburgh,PA,15219
"773 Edington Drive",Norcross,GA,30093
"2817 Biddie Lane",Cumberland,VA,23040
"1474 Ryder Avenue",Seattle,WA,98109
"975 Jadewood Drive",Chicago,IL,60606
"1404 Buckhannan Avenue",Syracuse,NY,13202
"2922 Hillcrest Drive",Tacoma,WA,98402
"460 Hidden Pond Road",Nashville,TN,37201
"311 Scott Street",Poughkeepsie,NY,12601
"4741 Lawman Avenue",Fairfax,VA,22030
"872 Lowes Alley",Westerville,OH,43081
"51 Kemper Lane",Kearns,UT,84118
"2294 Chenoweth Drive",Monterey,TN,38574
"3501 Quincy Street",Philadelphia,PA,19108
"2540 John Avenue",Lansing,MI,48933
"3191 Oak Drive",Albany,NY,12207
"533 Marigold Lane","Pompano Beach",FL,33069
"1942 Jerry Toth Drive",Rest,AK,99501
"1675 Jessie Street",Hallsville,OH,45633
"2212 Calvin Street",Baltimore,MD,21202
"976 Poe Lane","Kansas City",KS,66101
"4903 Alfred Drive",Brooklyn,NY,11212
"4867 Crestview Manor",Indianapolis,IN,46241
"2396 Byrd Lane",Grants,NM,87020
"1319 Harry Place",Concord,NC,28025
"3230 Boring Lane","San Francisco",CA,94122
"107 Margaret Street",Houston,TX,77011
"4787 Hilltop Street",Springfield,MA,01103
"3872 Alfred Drive","New York",NY,10011
"2041 Oak Avenue","Elk Grove Village",IL,60007
"3962 Elk Creek Road",Duluth,GA,30136
"229 Robinson Lane",Portsmouth,OH,45662
"587 Daylene Drive",Southfield,MI,48034
"480 Hidden Valley Road",Harrisburg,PA,17101
"1643 Buena Vista Avenue",Eugene,OR,97401
"4485 Cabell Avenue",Arlington,VA,22205
"2265 Beechwood Avenue","Red Bank",NJ,07701
"898 Timberbrook Lane",Westminster,CO,80030
"4583 Filbert Street",Philadelphia,PA,19103
"4018 Happy Hollow Road",Fayetteville,NC,28301
"744 Drummond Street","South Orange",NJ,07079
"2054 Oak Street",Syracuse,NY,13202
"1876 Robinson Court",Saginaw,MI,48607
"1151 Benson Street","Eau Claire",WI,54701
"3562 Ashford Drive",Beltsville,VA,20705
"3690 High Meadow Lane","Hanover Township",PA,18706
"2537 Johnny Lane","New Berlin",WI,53151
"4920 Clement Street",Roswell,GA,30076
"4331 Jadewood Farms",Dover,NJ,07801
"263 Frum Street",Nashville,TN,37201
"4445 Happy Hollow Road",Troy,NC,27371
"4801 Little Acres Lane",Mendon,IL,62351
"3474 Wescam Court","Carson City",NV,89701
"4554 Libby Street","Los Angeles",CA,90017
"799 Bombardier Way",Westerville,OH,43081
"3253 Confederate Drive",Baldwinsville,NY,13027
"3105 New York Avenue",Plano,TX,75074
"4793 Davis Lane","Greenwood Village",CO,80111
"3831 Giraffe Hill Drive",Carrollton,TX,75007
"384 Elliott Street",Manchester,NH,03101
"370 Sugarfoot Lane",Richmond,IN,47374
"4428 Tavern Place",Elizabeth,WV,26143
"2536 Kerry Way","Los Angeles",CA,90017
"3913 Walnut Street",Jackson,MS,39201
"3429 Edsel Road","Van Nuys",CA,91405
"2876 Upton Avenue",Westbrook,ME,04092
"4314 Fowler Avenue",Norcross,GA,30071
"1073 Woodbridge Lane",Pontiac,MI,48342
"825 Steve Hunt Road","Boca Raton",FL,33486
"177 Overlook Drive",Indianapolis,IN,46214
"680 Marshville Road",Poughkeepsie,NY,12601
"1178 Sardis Station",Minneapolis,MN,55415
"1699 Golden Ridge Road","Clifton Park",NY,12148
"1184 Marion Drive",Tampa,FL,33614
"4209 Lucky Duck Drive",Portland,PA,97205
"270 College Street",Norcross,GA,30093
"777 Selah Way",Brattleboro,VT,05301
"2196 Kovar Road",Framingham,MA,01702
"4924 Kildeer Drive",Norfolk,VA,23502
"4155 Traction Street",Spartanburg,SC,29302
"4724 Trouser Leg Road",Springfield,MA,01109
"4235 Mercer Street",Stetsonville,WI,54480
"4662 Comfort Court",Monroe,WI,53566
"2582 Wright Court","Cahaba Heights",AL,35242
"3738 Emily Renzelli Boulevard",Salinas,CA,93901
"985 Sun Valley Road",Spokane,WA,99201
"1174 Moore Avenue",Dallas,TX,75204
"862 Clark Street",Aurora,IL,60505
"120 Meadow Drive","Oklahoma City",OK,73107
"3227 Broaddus Avenue","Battle Creek",MI,49017
"1066 Briercliff Road",Bronx,NY,10467
"1135 Essex Court",Burlington,VT,05401
"1774 Cunningham Court","Farmington Hills",MI,48335
"1958 McDowell Street",Nashville,TN,37204
"3274 Maple Court","Edgar Springs",MO,65462
"1810 Clifford Street",Oakland,CA,94607
"1942 Sugar Camp Road",Owatonna,MN,55060
"4888 Vernon Street","Los Angeles",CA,90017
"546 Brown Avenue",Pelzer,SC,29669
"1169 Upton Avenue",Skowhegan,ME,04976
"4068 Willow Oaks Lane",Lafayette,LA,70501
"1400 McDowell Street",Cookeville,TN,38501
"1888 Kelley Road",Biloxi,MS,39531
"1493 Saints Alley",Tampa,FL,33607
"3150 Black Stallion Road",Cincinnati,KY,45249
"3317 Poplar Chase Lane",Boise,ID,83702
"778 Barnes Street",Orlando,FL,32822
"2347 Tail Ends Road","Green Bay",WI,54303
"1027 Karen Lane",Zoneton,KY,40165
"1736 Hillside Street",Scottsdale,AZ,85251
"1639 Smith Street",Greendale,MA,01606
"1951 Edsel Road",Irvine,CA,92614
"3189 Wayback Lane",Smithtown,NY,11787
"4472 Birch  Street","El Paso",TX,79930
"2999 Clement Street",Norcross,GA,30071
"3204 White River Way","Salt Lake City",UT,84104
"2161 Green Hill Road","Fort Smith",AR,72901
"4114 Meadowview Drive",Waynesboro,VA,22980
"4093 Village View Drive","Bonita Springs",FL,33923
"4605 Maple Court",Silex,MO,63469
"2907 Hilltop Street",Huntington,MA,01050
"609 Locust View Drive","San Francisco",CA,94104
"2604 Tree Frog Lane",Lenexa,MO,66215
"3691 Raver Croft Drive","Bulls Gap",TN,37711
"1552 Green Avenue",Fremont,CA,94539
"3881 Eastland Avenue",Jackson,MS,39201
"3714 Hiney Road","North Las Vegas",NV,89032
"2536 Murry Street",Chesapeake,VA,23323
"3357 Bassel Street","Morgan City",LA,70380
"3211 Ashton Lane",Austin,TX,78756
"2263 Leroy Lane",Lexington,KY,40505
"4919 Roosevelt Road",Hesston,KS,67062
"3145 Duncan Avenue","New York",NY,10011
"1552 Jerome Avenue",Laredo,TX,78041
"3963 Hoffman Avenue",Huntington,NY,11743
"2264 Park Street",Oakland,CA,94612
"1958 Walnut Hill Drive",Portland,OH,45204
"562 Duck Creek Road",Oakland,CA,94612
"1785 Cantebury Drive","Garden City",NY,11530
"2177 Dennison Street",Modesto,CA,95354
"4566 Hillcrest Circle",Eagan,MN,55121
"2336 Charter Street","Kansas City",KS,66207
"1280 Comfort Court",Madison,WI,53703
"3818 Ray Court",Jacksonville,NC,28546
"3626 Coffman Alley","Oak Grove",KY,42223
"2508 Burke Street",Norwood,MA,02062
"3352 Wescam Court","Carson City",NV,89701
"375 Highland Drive",Appleton,WI,54911
"4929 Capitol Avenue",Indianapolis,IN,46256
"2050 Hinkle Deegan Lake Road",Binghamton,NY,13901
"3404 Clifford Street","San Francisco",CA,94103
"2099 Berkley Street",Philadelphia,PA,19108
"1376 Freedom Lane",Stockton,CA,95204
"2835 Eastland Avenue",Jackson,MS,39201
"153 Orphan Road","Eau Claire",WI,54701
"2740 Skips Lane",Hyder,AZ,85069
"4664 Angus Road","New York",NY,10003
"1407 Elkview Drive",Stuart,FL,34994
"4813 Washburn Street",Donaldsonville,LA,70346
"856 Dola Mine Road",Raleigh,NC,27603
"4398 Golf Course Drive",Herndon,VA,20170
"3262 Half and Half Drive","O Neals",CA,93645
"4726 New Creek Road",Huntsville,AL,35816
"70 Cherry Camp Road",Lombard,IL,60148
"4251 Clarence Court","Los Angeles",CA,90017
"2486 Edsel Road",Irvine,CA,92614
"251 Rafe Lane",Jackson,MS,39211
"823 Filbert Street",Philadelphia,PA,19103
"1053 Benedum Drive",Middletown,NY,10940
"2211 Eagle Drive",Wayne,MI,48184
"336 Rafe Lane",Benoit,MS,38725
"1839 Hillcrest Circle",Crystal,MN,55429
"4876 Broaddus Avenue",Livermore,KY,42352
"310 Five Points",Baltimore,MD,21201
"4257 Oakway Lane",Reseda,CA,91335
"4337 Stratford Park",Decker,IN,47524
"1259 Hayhurst Lane","West Bloomfield",MI,48033
"1818 Grey Fox Farm Road",Houston,TX,77032
"1019 Rhode Island Avenue",Washington,DC,20024
"3477 White Lane",Macon,GA,31201
"602 Camel Back Road",Fanshawe,OK,74935
"629 Green Avenue",Oakland,CA,94612
"300 Cambridge Place",Pikesville,MD,21208
"2880 Tenmile Road",Cambridge,MA,02141
"1480 Nancy Street",Garner,NC,27529
"1715 Maple Court",Naylor,MO,63953
"857 Locust Street","Grand Rapids",MI,49508
"1979 Short Street",Austin,TX,78723
"1662 Maxwell Farm Road",Blacksburg,VA,24060
"705 Kyle Street","Grand Island",NE,68801
"1770 Hilltop Drive",Peacock,TX,79542
"3436 Diamond Cove",Carolina,RI,02812
"2133 White Lane",Macon,GA,31201
"1317 North Bend River Road",Morehead,KY,40351
"2927 Woodstock Drive",Alhambra,CA,91801
"871 Mount Olive Road",Norcross,GA,30093
"2455 Cody Ridge Road","Oklahoma City",OK,73105
"259 Stewart Street",Indianapolis,IN,46202
"2041 Brighton Circle Road",Litchfield,MN,55355
"971 Irving Place",Pacific,MO,63069
"3118 Eagles Nest Drive",Sacramento,CA,95814
"39 Bicetown Road","New York",NY,10013
"3183 Stanton Hollow Road",Boston,MA,02199
"980 Stanton Hollow Road",Arlington,MA,02174
"1163 Berkshire Circle",Knoxville,TN,37917
"3 Marion Street",Dorset,VT,05251
"651 Woodland Avenue",Metairie,LA,70007
"1633 Red Hawk Road",Orlando,FL,32801
"4557 Single Street",Arlington,MA,02174
"321 Bastin Drive",Newark,PA,19714
"2675 Horseshoe Lane",Newark,PA,19714
"4921 Sycamore Fork Road","Boca Raton",FL,33486
"411 Werninger Street",Houston,TX,77002
"3451 Morgan Street",Pensacola,FL,32507
"3485 Rockford Road",Westborough,MA,01581
"3389 Shobe Lane",Wiggins,CO,80654
"111 Wyatt Street","Delray Beach",FL,33483
"3493 Clover Drive","Colorado Springs",CO,80903
"919 Vesta Drive",Chicago,IL,60605
"1640 Emma Street",Kailua,HI,96734
"4783 Marcus Street",Huntsville,AL,35816
"1256 Quarry Drive","New Brockton",AL,36351
"4332 Skips Lane",Tempe,AZ,85282
"4346 Camden Place","New York",NY,10014
"4375 Cantebury Drive","Long Island City",NY,11101
"40 Jett Lane","Los Angeles",CA,90017
"1634 Brookside Drive",Clanton,AL,35045
"1892 Ash Avenue","Saint Louis",MO,63146
"3407 Hickory Street","Salt Lake City",UT,84111
"2868 Summit Park Avenue",Southfield,MI,48075
"355 Chestnut Street",Clearwater,FL,34623
"4468 Pinewood Drive","Buffalo Grove",IL,60089
"3398 New Creek Road","Fort Wayne",IN,46802
"2792 Clearview Drive",Evergreen,CO,80439
"971 Queens Lane",Emporia,VA,23847
"2902 Jones Avenue","Winston Salem",NC,27107
"4606 Warner Street","Miami Springs",FL,33166
"3365 Alpha Avenue",Jacksonville,FL,32202
"1247 Cameron Road",Buffalo,NY,14214
"4170 Hickman Street","Hickory Hills",IL,60457
"1552 Fincham Road","El Centro",CA,92243
"3134 Washington Avenue",Phoenix,AZ,85003
"281 Progress Way","Iowa City",IA,52240
"1469 Lakeland Park Drive",Norcross,GA,30071
"4276 Frank Avenue",Springfield,MA,01103
"4124 Clousson Road",Carroll,IA,51401
"1877 Bloomfield Way",Upton,ME,04261
"65 West Side Avenue",Newark,NJ,07102
"922 Conference Center Way",Scranton,PA,18503
"1052 Ritter Street",Huntsville,AL,35808
"4269 Turkey Pen Lane",Montgomery,AL,36104
"3640 Boundary Street",Jacksonville,FL,32256
"3988 Rockwell Lane","New Bern",NC,28562
"1294 Williams Avenue",Palmdale,CA,93550
"3199 Vineyard Drive",Chesterland,OH,44026
"2563 Lighthouse Drive",Dora,MO,65637
"3853 Riverwood Drive",Colfax,CA,95713
"4466 Turkey Pen Road","New York",NY,10038
"2092 Jenna Lane",Cincinnati,OH,45245
"1247 Grey Fox Farm Road",Houston,TX,77006
"4137 Jenna Lane",Kanawha,IA,50447
"1661 Illinois Avenue",Corbett,OR,97019
"4811 Fairfield Road",Waukesha,WI,53188
"1157 Lee Avenue",Pennsauken,NJ,08110
"1683 Alexander Avenue",Concord,CA,94520
"1314 Olen Thomas Drive",Jacksboro,TX,76056
"3154 Birch Street",Indianapolis,IN,46202
"2620 Briarhill Lane","Stone Creek",OH,43840
"2927 Stout Street",York,PA,17401
"874 Cecil Street",Chicago,IL,60606
"3893 Rafe Lane",Cleveland,MS,38732
"1604 Nutter Street","Kansas City",MO,64106
"4814 Hott Street","Oklahoma City",OK,73102
"1461 Brannon Street","Los Angeles",CA,90071
"4646 Illinois Avenue",Portland,OR,97205
"965 Dog Hill Lane",Lawrence,KS,66044
"1431 Finwood Road","Toms River",NJ,08753
"4082 Windy Ridge Road",Berne,IN,46711
"4192 Thunder Road","San Mateo",CA,94403
"549 Viking Drive",Dublin,OH,43017
"2639 Eva Pearl Street","Baton Rouge",LA,70802
"4011 Ralph Drive",Independence,OH,44131
"2432 Sun Valley Road",Wenatchee,WA,98801
"4764 Despard Street",Atlanta,GA,30305
"2553 Hillcrest Circle",Buffalo,MN,55313
"699 Stockert Hollow Road",Redmond,WA,98052
"4226 Moore Avenue","Fort Worth",TX,76104
"1297 Elk Avenue",Ransom,MI,49266
"301 Kelley Road",Biloxi,MS,39531
"2049 Layman Court",Norcross,GA,30071
"4583 Valley Street",Pennsauken,NJ,08110
"4827 Geraldine Lane","New York",NY,10033
"426 Drainer Avenue",Pensacola,FL,32514
"1972 Cessna Drive","Fort Wayne",IN,46802
"3121 Russell Street",Boston,MA,02199
"4264 Karen Lane",Portland,OR,97205
"215 Oak Lane",Chula,MO,64635
"3957 Geneva Street","New York",NY,10013
"3140 Buck Drive","Salt Lake City",UT,84119
"441 Harley Vincent Drive",Huntsburg,OH,44046
"4161 Howard Street",Ionia,MI,48846
"1852 Edgewood Road",Memphis,TN,38115
"4779 Collins Street",Punxsutawney,PA,15767
"1862 Meadow View Drive",Hartford,CT,06103
"3342 Lake Floyd Circle",Washington,MD,20200
"4777 Gandy Street","East Syracuse",NY,13057
"3723 Meadow Drive",Helena,MT,59601
"2979 Hall Street","Las Vegas",NV,89119
"706 Thompson Street","Los Angeles",CA,90017
"3234 Jennifer Lane",Durham,NC,27713
"2630 Mount Street",Saginaw,MI,48607
"3582 Hall Valley Drive",Oceana,WV,24870
"296 Foley Street",Doral,FL,33172
"4312 Coventry Court",Biloxi,MS,39531
"3420 Sarah Drive","Lake Charles",LA,70629
"1757 Wright Court",Seattle,WA,98119
"4788 Holly Street",Rome,GA,30161
"4823 Hawks Nest Lane",Stlouis,MO,63101
"3971 State Street",Olivette,MO,63132
"829 Marion Drive",Tampa,FL,33619
"2701 Diamond Street",Charlotte,NC,28202
"1112 James Martin Circle",Pataskala,OH,43062
"1134 Barnes Avenue",Cincinnati,OH,45202
"269 Oliver Street","Grand Prairie",TX,75051
"2463 Chardonnay Drive",Grayland,WA,98547
"2971 Cantebury Drive","New York",NY,10007
"1684 Fairmont Avenue",Moberly,MO,65270
"3449 Edgewood Avenue",Fresno,CA,93721
"129 Forest Drive",Washington,VA,20200
"1761 Coolidge Street",Baker,MT,59313
"994 Lost Creek Road",Allentown,PA,18109
"594 Raintree Boulevard",Richmond,IN,47374
"3099 Stroop Hill Road",Atlanta,GA,30303
"2397 Oak Lane","Kansas City",MO,64106
"4757 Highland View Drive",Sacramento,CA,95814
"2142 Friendship Lane",Portland,CA,95113
"4674 Kovar Road","West Roxbury",MA,02132
"2271 Hurry Street",Waynesboro,VA,22980
"674 Willison Street",Eagan,MN,55121
"2884 Lynch Street","Random Lake",WI,53075
"661 Broaddus Avenue",Gracey,KY,42232
"4015 Woodlawn Drive","New Berlin",WI,53151
"3149 Goosetown Drive",Hickory,NC,28601
"4034 Edwards Street","Rocky Mount",NC,27801
"3321 Hood Avenue","San Diego",CA,92128
"855 Asylum Avenue",Stamford,CT,06902
"1987 Star Route",Bensenville,IL,60106
"4860 Finwood Road",Montclair,NJ,07042
"4585 Oakdale Avenue","Lake Placid",FL,33852
"1455 Parkway Drive",Tucson,AZ,85705
"3145 Oxford Court",Columbus,MS,39701
"1557 Woodhill Avenue",Laurel,MD,20707
"2738 Robinson Court",Saginaw,MI,48607
"854 Gnatty Creek Road","Garden City",NY,11530
"528 Burnside Avenue","Castle Dale",UT,84513
"4069 Lynch Street","De Pere",WI,54115
"3405 Woodhill Avenue",Federalsburg,MD,21632
"3638 Patton Lane",Charlotte,NC,28202
"4874 John Calvin Drive",Hillside,IL,60162
"4509 Snider Street",Englewood,CO,80112
"3607 Sherman Street",Dubois,KS,68345
"4565 Garfield Road","East Peoria",IL,61611
"2964 Lakeland Park Drive",Gainesville,GA,30501
"3355 Williams Lane",Wichita,KS,67216
"1645 Driftwood Road",Oakland,CA,94612
"552 Loving Acres Road",Plattsburg,MO,64477
"1309 Briercliff Road",Flushing,NY,11354
"3724 Boundary Street",Jacksonville,FL,32246
"2137 Walnut Street",Jackson,MS,39213
"2587 Whitetail Lane",Dallas,TX,75201
"2926 Irving Road",Worthington,OH,43085
"4726 Windy Ridge Road",Leo,IN,46765
"1024 New York Avenue","Los Angeles",CA,90071
"3589 Blane Street","Creve Coeur",MO,63017
"2811 Forest Drive",Arlington,VA,22204
"256 Saints Alley",Zephyrhills,FL,33541
"4209 Viking Drive",Glouster,OH,45732
"2557 Stark Hollow Road",Nucla,CO,81424
"1510 Richland Avenue","Sugar Land",TX,77487
"1 Green Hill Road",Fayetteville,AR,72703
"839 Elkview Drive","West Palm Beach",FL,33410
"1526 Derek Drive","New Philadelphia",OH,44663
"1370 Kovar Road",Medway,MA,02053
"1319 Mount Street",Saginaw,MI,48601
"3464 Williams Mine Road",Lyndhurst,NJ,07071
"2189 University Drive",Chicago,IL,60631
"465 Progress Way",Dodgeville,IA,52650
"2035 Ella Street","San Francisco",CA,94107
"4226 James Street",Rochester,NY,14620
"4926 Broadcast Drive",Washington,VA,20005
"4489 Hannah Street",Asheville,NC,28801
"434 Cantebury Drive","New York",NY,10013
"4481 East Avenue",Scottsdale,AZ,85259
"4145 Hillcrest Lane","Newport Beach",CA,92660
"2016 Heavner Court",Westbury,NY,11590
"3413 Hannah Street",Sylva,NC,28779
"67 Tanglewood Road",Fulton,MS,38843
"393 James Martin Circle",Columbus,OH,43215
"4762 Mount Olive Road",Roswell,GA,30076
"3309 Lee Avenue",Camden,NJ,08102
"1016 Tenmile","Newport News",VA,23608
"3872 Biddie Lane",Richmond,VA,23227
"731 John Calvin Drive",Chicago,IL,60606
"3117 Meadowbrook Mall Road","Playa Del Rey",CA,90291
"2887 Hampton Meadows",Sudbury,MA,01776
"4958 Charack Road",Bloomington,IN,47408
"3914 Walt Nuzum Farm Road",Fairport,NY,14450
"4450 George Avenue",Mobile,AL,36608
"2035 Elsie Drive",Manchester,NH,03103
"2978 Harley Vincent Drive",Cleveland,OH,44114
"3573 Kelly Drive",Charleston,WV,25301
"415 Clair Street",Brandon,TX,76628
"4026 Olen Thomas Drive",Denton,TX,76205
"1573 Fancher Drive",Cleburne,TX,76031
"4416 Melville Street",Arlington,TN,38002
"1033 Murphy Court",Riverside,CA,92501
"3938 Alpaca Way","Santa Ana",CA,92704
"714 Carriage Court",Escondido,CA,92025
"2930 Richards Avenue",Stockton,CA,95204
"1971 Hurry Street",Roanoke,VA,24011
"2366 Rosebud Avenue",Wilmar,AR,71675
"3309 Rinehart Road","Fort Lauderdale",FL,33311
"1101 Carson Street","San Diego",CA,92121
"1217 Boggess Street",Decatur,TX,76234
"2333 Snyder Avenue",Charlotte,NC,28263
"4470 Lyon Avenue",Worcester,MA,01609
"844 Fannie Street",Bryan,TX,77808
"2470 Caynor Circle",Wayne,NJ,07477
"4909 Crummit Lane",Lincoln,NE,68501
"1121 Irish Lane","La Crosse",WI,54601
"477 Cedar Lane","South Boston",MA,02127
"602 Norma Lane",Shreveport,LA,71101
"2425 Charmaine Lane",Farwell,TX,79325
"4493 Worthington Drive",Plano,TX,75074
"2883 Charles Street",Southfield,MI,48075
"1362 Kuhl Avenue",Atlanta,GA,30303
"3736 Hanover Street","Garden City",NY,11530
"3774 Alfred Drive",York,PA,17401
"4869 Cooks Mine Road",Albuquerque,NM,87102
"2054 Bird Spring Lane",Houston,TX,77014
"4682 Waldeck Street",Wedgwood,TX,76133
"4105 Flynn Street",Ashtabula,OH,44004
"915 Benson Park Drive","Oklahoma City",OK,73109
"627 Webster Street",Newark,NJ,07102
"3754 Ford Street","Santa Clara",CA,95050
"147 Mattson Street",Portland,OR,97205
"4166 Columbia Boulevard",Baltimore,MD,21215
"4457 Forest Avenue","New York",NY,10013
"2521 Carriage Court","San Diego",CA,92111
"229 John Daniel Drive",Wellsville,MO,63384
"993 Preston Street",Parsons,KS,67357
"2526 Cessna Drive","Fort Wayne",IN,46865
"191 Blue Spruce Lane",Woodlawn,MD,21207
"411 Park Avenue",Sacramento,CA,95814
"2346 Irving Place",Manchester,MO,63011
"3386 Joseph Street",Milwaukee,WI,53226
"3492 Bartlett Avenue","Royal Oak",MI,48067
"4729 Johnson Street",Garner,NC,27529
"893 North Street","Salt Lake City",UT,84101
"1718 Heliport Loop",Chandler,IN,47610
